"","PlaceFIPS","MetroName","Population1970","Population1980","Population1990","Population2000","Population2010","PrincipalCity","StAbbr","State","StateFIPS","Latitude","Longitude","elevation","mindate","maxdate","latitude","name","datacoverage","id","elevationUnit","longitude","Dist"
"1",1000,"Akron, OH",679239,660328,657575,694960,703200,"Akron","OH","Ohio",39,41.0801445,-81.5219194,369.7,"1948-07-01","2019-02-28",40.9181,"AKRON CANTON AIRPORT, OH US",1,"GHCND:USW00014895","METERS",-81.4435,19.2042209577253
"2",1000,"Akron, OH",679239,660328,657575,694960,703200,"Akron","OH","Ohio",39,41.0801445,-81.5219194,337.4,"1948-08-01","2018-12-31",41.1333,"RAVENNA 2 S, OH US",0.9385,"GHCND:USC00336949","METERS",-81.2833,20.8712138072241
"3",1000,"Albany-Schenectady-Troy, NY",746660,771290,809443,825875,870716,"Albany","NY","New York",36,42.666397,-73.7986828,7.3,"1932-11-01","2019-02-28",42.7508,"TROY LOCK AND DAM, NY US",0.7049,"GHCND:USC00308600","METERS",-73.6856,13.1849412687906
"4",1000,"Albany-Schenectady-Troy, NY",746660,771290,809443,825875,870716,"Albany","NY","New York",36,42.666397,-73.7986828,85.3,"1938-06-01","2019-02-28",42.74722,"ALBANY INTERNATIONAL AIRPORT, NY US",1,"GHCND:USW00014735","METERS",-73.79912,8.99724628337356
"5",1000,"Albany-Schenectady-Troy, NY",746660,771290,809443,825875,870716,"Albany","NY","New York",36,42.666397,-73.7986828,185,"1942-05-01","2019-02-28",42.4697,"ALCOVE DAM, NY US",0.9516,"GHCND:USC00300063","METERS",-73.9267,24.2816004706219
"6",2000,"Albuquerque, NM",379095,523105,599416,729649,887077,"Albuquerque","NM","New Mexico",35,35.1053193,-106.646413,1618.5,"1931-03-01","2019-02-28",35.0419,"ALBUQUERQUE INTERNATIONAL AIRPORT, NM US",0.9999,"GHCND:USW00023050","METERS",-106.6155,7.60083057085366
"7",2000,"Allentown-Bethlehem-Easton, PA-NJ",594124,635481,686688,740395,821173,"Allentown","PA","Pennsylvania",42,40.5961003,-75.4755419,138.7,"1934-11-01","2019-02-28",40.8223,"LEHIGHTON 1 SSW, PA US",0.9797,"GHCND:USC00364934","METERS",-75.6962,31.3169800017768
"8",2000,"Allentown-Bethlehem-Easton, PA-NJ",594124,635481,686688,740395,821173,"Allentown","PA","Pennsylvania",42,40.5961003,-75.4755419,91.4,"1941-10-01","2018-12-31",40.38567,"PALM 3 SE, PA US",0.9021,"GHCND:USC00366681","METERS",-75.5019,23.5310379906806
"9",2000,"Allentown-Bethlehem-Easton, PA-NJ",594124,635481,686688,740395,821173,"Allentown","PA","Pennsylvania",42,40.5961003,-75.4755419,118.9,"1948-01-01","2019-02-28",40.64985,"ALLENTOWN LEHIGH VALLEY INTERNATIONAL AIRPORT, PA US",1,"GHCND:USW00014737","METERS",-75.44771,6.42891313633847
"10",4000,"Atlanta-Sandy Springs-Roswell, GA",1852235,2338211,3082308,4263438,5286728,"Atlanta","GA","Georgia",13,33.7626215,-84.4227908,307.8,"1930-01-01","2019-02-28",33.6301,"ATLANTA HARTSFIELD INTERNATIONAL AIRPORT, GA US",1,"GHCND:USW00013874","METERS",-84.4418,14.8569096958665
"11",4000,"Atlanta-Sandy Springs-Roswell, GA",1852235,2338211,3082308,4263438,5286728,"Atlanta","GA","Georgia",13,33.7626215,-84.4227908,283.5,"1940-06-10","2019-02-27",33.5312,"JONESBORO, GA US",0.9387,"GHCND:USC00094700","METERS",-84.3545,26.5276497988495
"12",4000,"Atlanta-Sandy Springs-Roswell, GA",1852235,2338211,3082308,4263438,5286728,"Atlanta","GA","Georgia",13,33.7626215,-84.4227908,313.3,"1947-02-01","2019-02-28",33.9982,"DALLAS 7 NE, GA US",0.9746,"GHCND:USC00092485","METERS",-84.751,40.0970273223522
"13",4204,"Augusta-Richmond County, GA-SC",330905,389511,443205,508032,564873,"Augusta","GA","Georgia",13,33.3645147,-82.0708146,40.2,"1942-12-01","2019-02-28",33.3644,"AUGUSTA BUSH FIELD AIRPORT, GA US",0.9836,"GHCND:USW00003820","METERS",-81.9633,9.99594486400307
"14",4204,"Augusta-Richmond County, GA-SC",330905,389511,443205,508032,564873,"Augusta","GA","Georgia",13,33.3645147,-82.0708146,120.7,"1961-01-01","2018-12-31",33.55731,"APPLING 2 NW, GA US",0.9772,"GHCND:USC00090311","METERS",-82.33683,32.725147526285
"15",5000,"Austin-Round Rock, TX",398938,585051,846227,1249763,1716289,"Austin","TX","Texas",48,30.3006465,-97.7517502,204.2,"1938-06-01","2019-02-27",30.3208,"AUSTIN CAMP MABRY, TX US",1,"GHCND:USW00013958","METERS",-97.7604,2.39252845153615
"16",5000,"Austin-Round Rock, TX",398938,585051,846227,1249763,1716289,"Austin","TX","Texas",48,30.3006465,-97.7517502,146.3,"1948-03-15","2019-02-28",30.1831,"AUSTIN BERGSTROM INTERNATIONAL AIRPORT, TX US",0.654,"GHCND:USW00013904","METERS",-97.6799,14.7975789386315
"17",3526,"Bakersfield, CA",329162,403089,543477,661645,839631,"Bakersfield","CA","California",6,35.3529538,-119.0359158,88.7,"1901-01-05","2019-02-27",35.5892,"WASCO, CA US",0.9498,"GHCND:USC00049452","METERS",-119.352,38.8946371142413
"18",3526,"Bakersfield, CA",329162,403089,543477,661645,839631,"Bakersfield","CA","California",6,35.3529538,-119.0359158,149,"1937-10-01","2019-02-28",35.4344,"BAKERSFIELD AIRPORT, CA US",1,"GHCND:USW00023155","METERS",-119.0542,9.2171235968302
"19",4000,"Baltimore-Columbia-Towson, MD",2089092,2199531,2382172,2552994,2710489,"Baltimore","MD","Maryland",24,39.3009802,-76.6106474,121.9,"1895-04-01","2016-08-31",39.0847,"LAUREL 3 W, MD US",0.9156,"GHCND:USC00185111","METERS",-76.9002,34.6946936536299
"20",4000,"Baltimore-Columbia-Towson, MD",2089092,2199531,2382172,2552994,2710489,"Baltimore","MD","Maryland",24,39.3009802,-76.6106474,47.5,"1939-07-01","2019-02-28",39.1733,"BALTIMORE WASHINGTON INTERNATIONAL AIRPORT, MD US",1,"GHCND:USW00093721","METERS",-76.684,15.5569036420114
"21",4000,"Baltimore-Columbia-Towson, MD",2089092,2199531,2382172,2552994,2710489,"Baltimore","MD","Maryland",24,39.3009802,-76.6106474,44.2,"1941-05-01","2019-02-26",39.0302,"BELTSVILLE, MD US",0.9481,"GHCND:USC00180700","METERS",-76.9315,40.9324934632825
"22",5000,"Baton Rouge, LA",467346,591383,623853,705973,802484,"Baton Rouge","LA","Louisiana",22,30.4423409,-91.1314379,19.5,"1930-01-01","2019-02-27",30.5372,"BATON ROUGE METRO AIRPORT, LA US",0.9991,"GHCND:USW00013970","METERS",-91.1469,10.6633251503223
"23",5000,"Baton Rouge, LA",467346,591383,623853,705973,802484,"Baton Rouge","LA","Louisiana",22,30.4423409,-91.1314379,7.6,"1937-09-01","2019-02-26",30.198,"CARVILLE 2 SW, LA US",0.9846,"GHCND:USC00161565","METERS",-91.1255,27.2058887189735
"24",5000,"Baton Rouge, LA",467346,591383,623853,705973,802484,"Baton Rouge","LA","Louisiana",22,30.4423409,-91.1314379,13.7,"1942-09-25","2019-02-26",30.7268,"NEW ROADS, LA US",0.8795,"GHCND:USC00166686","METERS",-91.3672,38.8998522022123
"25",5000,"Baton Rouge, LA",467346,591383,623853,705973,802484,"Baton Rouge","LA","Louisiana",22,30.4423409,-91.1314379,6.4,"1963-01-01","2019-02-27",30.3644,"LSU BEN HUR FARM, LA US",0.9861,"GHCND:USC00165620","METERS",-91.1672,9.33103747419844
"26",7000,"Birmingham-Hoover, AL",833075,930281,956844,1052238,1128047,"Birmingham","AL","Alabama",1,33.527599,-86.7987831,182.9,"1917-02-01","2019-02-28",33.5228,"LEEDS, AL US",0.9327,"GHCND:USC00014619","METERS",-86.58,20.3102510316947
"27",7000,"Birmingham-Hoover, AL",833075,930281,956844,1052238,1128047,"Birmingham","AL","Alabama",1,33.527599,-86.7987831,187.5,"1930-01-01","2019-02-28",33.56556,"BIRMINGHAM AIRPORT, AL US",1,"GHCND:USW00013876","METERS",-86.745,6.53882532256396
"28",7000,"Birmingham-Hoover, AL",833075,930281,956844,1052238,1128047,"Birmingham","AL","Alabama",1,33.527599,-86.7987831,220.1,"1948-06-01","2016-08-31",33.7449,"PALMERDALE, AL US",0.9093,"GHCND:USC00016246","METERS",-86.6418,28.2282285268982
"29",8830,"Boise City, ID",191090,280035,319596,464840,616561,"Boise City","ID","Idaho",16,43.6006037,-116.2315866,728.5,"1906-10-01","2019-02-25",43.8544,"EMMETT 2 E, ID US",0.9766,"GHCND:USC00102942","METERS",-116.4663,33.9808415692147
"30",8830,"Boise City, ID",191090,280035,319596,464840,616561,"Boise City","ID","Idaho",16,43.6006037,-116.2315866,857.7,"1931-01-01","2019-02-28",43.5666,"BOISE AIR TERMINAL, ID US",0.8979,"GHCND:USW00024131","METERS",-116.2405,3.85290764070722
"31",8830,"Boise City, ID",191090,280035,319596,464840,616561,"Boise City","ID","Idaho",16,43.6006037,-116.2315866,865.6,"1951-01-12","2019-02-26",43.5253,"BOISE LUCKY PEAK DAM, ID US",0.8597,"GHCND:USC00101018","METERS",-116.0542,16.5834323399657
"32",7000,"Boston-Cambridge-Newton, MA-NH",3918092,3938585,4133895,4391344,4552402,"Boston","MA","Massachusetts",25,42.332227,-71.0163856,190.5,"1893-01-01","2019-02-27",42.2123,"BLUE HILL, MA US",0.9979,"GHCND:USC00190736","METERS",-71.1137,15.5718801148069
"33",7000,"Boston-Cambridge-Newton, MA-NH",3918092,3938585,4133895,4391344,4552402,"Boston","MA","Massachusetts",25,42.332227,-71.0163856,22.9,"1894-01-01","2019-02-19",42.04756,"BROCKTON, MA US",0.8796,"GHCND:USC00190860","METERS",-71.00819,31.6961942253089
"34",7000,"Boston-Cambridge-Newton, MA-NH",3918092,3938585,4133895,4391344,4552402,"Boston","MA","Massachusetts",25,42.332227,-71.0163856,33.5,"1925-11-01","2019-02-27",42.5934,"MIDDLETON, MA US",0.9972,"GHCND:USC00194744","METERS",-71.0187,29.074266610564
"35",7000,"Boston-Cambridge-Newton, MA-NH",3918092,3938585,4133895,4391344,4552402,"Boston","MA","Massachusetts",25,42.332227,-71.0163856,3.7,"1936-01-01","2019-02-28",42.3606,"BOSTON, MA US",1,"GHCND:USW00014739","METERS",-71.0097,3.20600692527332
"36",7000,"Boston-Cambridge-Newton, MA-NH",3918092,3938585,4133895,4391344,4552402,"Boston","MA","Massachusetts",25,42.332227,-71.0163856,40.5,"1949-01-01","2019-02-27",42.47,"BEDFORD HANSCOM FIELD, MA US",0.6049,"GHCND:USW00014702","METERS",-71.28944,27.1851973297227
"37",7000,"Boston-Cambridge-Newton, MA-NH",3918092,3938585,4133895,4391344,4552402,"Boston","MA","Massachusetts",25,42.332227,-71.0163856,33.5,"1960-01-01","2019-02-28",42.524,"READING, MA US",0.9929,"GHCND:USC00196783","METERS",-71.1249,23.1352893356312
"38",7000,"Boston-Cambridge-Newton, MA-NH",3918092,3938585,4133895,4391344,4552402,"Boston","MA","Massachusetts",25,42.332227,-71.0163856,10.7,"1960-09-01","2019-02-27",42.2269,"HINGHAM, MA US",0.9982,"GHCND:USC00193624","METERS",-70.9125,14.5149390825244
"39",7000,"Boston-Cambridge-Newton, MA-NH",3918092,3938585,4133895,4391344,4552402,"Boston","MA","Massachusetts",25,42.332227,-71.0163856,29,"1962-08-15","2019-02-28",42.3031,"JAMAICA PLAIN, MA US",0.9112,"GHCND:USC00193890","METERS",-71.124,9.4327642583635
"40",8000,"Bridgeport-Stamford-Norwalk, CT",792814,807143,827645,882567,916829,"Bridgeport","CT","Connecticut",9,41.1872277,-73.1954948,12.2,"1885-08-01","2018-05-31",40.9586,"SETAUKET STRONG, NY US",0.9021,"GHCND:USC00307633","METERS",-73.1047,26.5668371656144
"41",8000,"Bridgeport-Stamford-Norwalk, CT",792814,807143,827645,882567,916829,"Bridgeport","CT","Connecticut",9,41.1872277,-73.1954948,54.9,"1936-02-01","2018-02-28",41.40779,"MOUNT CARMEL, CT US",0.7913,"GHCND:USC00065077","METERS",-72.90273,34.6749775508057
"42",8000,"Bridgeport-Stamford-Norwalk, CT",792814,807143,827645,882567,916829,"Bridgeport","CT","Connecticut",9,41.1872277,-73.1954948,123.4,"1937-10-01","2018-11-30",41.4,"DANBURY, CT US",0.881,"GHCND:USC00061762","METERS",-73.4167,30.0550887918299
"43",8000,"Bridgeport-Stamford-Norwalk, CT",792814,807143,827645,882567,916829,"Bridgeport","CT","Connecticut",9,41.1872277,-73.1954948,1.5,"1942-12-08","2019-02-28",41.1583,"IGOR I SIKORSKY MEMORI AIRPORT, CT US",0.927,"GHCND:USW00094702","METERS",-73.1289,6.44270100797282
"44",8000,"Bridgeport-Stamford-Norwalk, CT",792814,807143,827645,882567,916829,"Bridgeport","CT","Connecticut",9,41.1872277,-73.1954948,0.9,"1948-01-01","2019-02-27",41.26389,"NEW HAVEN TWEED AIRPORT, CT US",0.6575,"GHCND:USW00014758","METERS",-72.88722,27.1847717974963
"45",8000,"Bridgeport-Stamford-Norwalk, CT",792814,807143,827645,882567,916829,"Bridgeport","CT","Connecticut",9,41.1872277,-73.1954948,57.9,"1955-12-01","2019-02-28",41.1247,"STAMFORD 5 N, CT US",0.8849,"GHCND:USC00067970","METERS",-73.5475,30.3131785572594
"46",11000,"Buffalo-Cheektowaga-Niagara Falls, NY",1349211,1242826,1189288,1170111,1135509,"Buffalo","NY","New York",36,42.8922505,-78.8594148,218.2,"1938-05-01","2019-02-28",42.9408,"BUFFALO NIAGARA INTERNATIONAL, NY US",0.9999,"GHCND:USW00014733","METERS",-78.7358,11.4353496710718
"47",11000,"Buffalo-Cheektowaga-Niagara Falls, NY",1349211,1242826,1189288,1170111,1135509,"Buffalo","NY","New York",36,42.8922505,-78.8594148,345.9,"1948-07-01","2019-02-28",42.7392,"WALES, NY US",0.5057,"GHCND:USC00308910","METERS",-78.5878,27.9678796371822
"48",11000,"Buffalo-Cheektowaga-Niagara Falls, NY",1349211,1242826,1189288,1170111,1135509,"Buffalo","NY","New York",36,42.8922505,-78.8594148,175,"1964-07-01","2019-02-24",42.8833,"PORT COLBORNE, CA",0.9683,"GHCND:CA006136606","METERS",-79.25,31.8726418557401
"49",10275,"Cape Coral-Fort Myers, FL",105216,205266,335113,440888,618754,"Cape Coral","FL","Florida",12,26.6444657,-81.9957095,4.6,"1892-01-01","2019-02-27",26.585,"FORT MYERS PAGE FIELD AIRPORT, FL US",0.9235,"GHCND:USW00012835","METERS",-81.8614,14.9163456018314
"50",13330,"Charleston-North Charleston, SC",336125,430462,506875,549033,664607,"Charleston","SC","South Carolina",45,32.8132284,-79.9634657,3,"1893-01-01","2018-11-30",32.775,"DOWNTOWN CHARLESTON, SC US",0.9987,"GHCND:USW00013782","METERS",-79.9239,5.64075232892727
"51",13330,"Charleston-North Charleston, SC",336125,430462,506875,549033,664607,"Charleston","SC","South Carolina",45,32.8132284,-79.9634657,19.8,"1898-07-01","2019-02-28",33.0366,"SUMMERVILLE 4 W, SC US",0.9276,"GHCND:USC00388426","METERS",-80.2325,35.3587425410513
"52",13330,"Charleston-North Charleston, SC",336125,430462,506875,549033,664607,"Charleston","SC","South Carolina",45,32.8132284,-79.9634657,12.2,"1937-03-01","2019-02-28",32.89943,"CHARLESTON INTL. AIRPORT, SC US",1,"GHCND:USW00013880","METERS",-80.04075,12.0129686972413
"53",13330,"Charleston-North Charleston, SC",336125,430462,506875,549033,664607,"Charleston","SC","South Carolina",45,32.8132284,-79.9634657,1.5,"1951-07-01","2018-12-20",32.7618,"SULLIVANS ISLAND, SC US",0.9161,"GHCND:USC00388405","METERS",-79.8573,11.4668667967526
"54",12000,"Charlotte-Concord-Gastonia, NC-SC",985683,1137438,1341710,1717372,2217012,"Charlotte","NC","North Carolina",37,35.2079156,-80.8303325,213.4,"1890-01-01","2019-01-31",35.2671,"GASTONIA, NC US",0.6688,"GHCND:USC00313356","METERS",-81.1436,29.2349819610348
"55",12000,"Charlotte-Concord-Gastonia, NC-SC",985683,1137438,1341710,1717372,2217012,"Charlotte","NC","North Carolina",37,35.2079156,-80.8303325,213.4,"1891-03-01","2019-02-28",35.4111,"CONCORD, NC US",0.6779,"GHCND:USC00311975","METERS",-80.5834,31.8554547829677
"56",12000,"Charlotte-Concord-Gastonia, NC-SC",985683,1137438,1341710,1717372,2217012,"Charlotte","NC","North Carolina",37,35.2079156,-80.8303325,185.9,"1892-10-01","2019-02-27",35.3338,"MOUNT HOLLY 4 NE, NC US",0.7342,"GHCND:USC00315913","METERS",-80.9868,19.9649085279226
"57",12000,"Charlotte-Concord-Gastonia, NC-SC",985683,1137438,1341710,1717372,2217012,"Charlotte","NC","North Carolina",37,35.2079156,-80.8303325,167.6,"1896-01-01","2019-02-28",34.9797,"MONROE 2 SE, NC US",0.9915,"GHCND:USC00315771","METERS",-80.5233,37.7818419967978
"58",12000,"Charlotte-Concord-Gastonia, NC-SC",985683,1137438,1341710,1717372,2217012,"Charlotte","NC","North Carolina",37,35.2079156,-80.8303325,198.1,"1899-12-01","2019-01-31",34.9388,"WINTHROP UNIVERSITY, SC US",0.9935,"GHCND:USC00389350","METERS",-81.03313,35.1970475829422
"59",12000,"Charlotte-Concord-Gastonia, NC-SC",985683,1137438,1341710,1717372,2217012,"Charlotte","NC","North Carolina",37,35.2079156,-80.8303325,160,"1928-02-15","2019-02-27",35.0217,"FORT MILL 4 NW, SC US",0.8903,"GHCND:USC00383216","METERS",-81.0075,26.2673745931155
"60",12000,"Charlotte-Concord-Gastonia, NC-SC",985683,1137438,1341710,1717372,2217012,"Charlotte","NC","North Carolina",37,35.2079156,-80.8303325,221.9,"1939-07-01","2019-02-28",35.2236,"CHARLOTTE DOUGLAS AIRPORT, NC US",0.9749,"GHCND:USW00013881","METERS",-80.9552,11.4896963127486
"61",14000,"Chattanooga, TN-GA",370016,426540,433210,476531,528143,"Chattanooga","TN","Tennessee",47,35.0657111,-85.248795,243.5,"1892-04-10","2018-05-31",34.853,"CHICKAMAUGA 2 SW, GA US",0.6423,"GHCND:USC00094941","METERS",-85.3142,24.4191707145505
"62",14000,"Chattanooga, TN-GA",370016,426540,433210,476531,528143,"Chattanooga","TN","Tennessee",47,35.0657111,-85.248795,204.2,"1938-04-01","2019-02-28",35.03362,"CHATTANOOGA AIRPORT, TN US",1,"GHCND:USW00013882","METERS",-85.20044,5.6728102000115
"63",14000,"Chicago-Naperville-Elgin, IL-IN-WI",7886829,8052932,8182076,9098316,9461105,"Chicago","IL","Illinois",17,41.8369037,-87.6847476,189,"1928-02-29","2019-02-27",41.7372,"CHICAGO MIDWAY AIRPORT 3 SW, IL US",0.9575,"GHCND:USC00111577","METERS",-87.7775,13.5076664295142
"64",14000,"Chicago-Naperville-Elgin, IL-IN-WI",7886829,8052932,8182076,9098316,9461105,"Chicago","IL","Illinois",17,41.8369037,-87.6847476,201.8,"1946-10-09","2019-02-28",41.995,"CHICAGO OHARE INTERNATIONAL AIRPORT, IL US",0.8333,"GHCND:USW00094846","METERS",-87.9336,27.1046444660226
"65",15000,"Cincinnati, OH-KY-IN",1679873,1741049,1832313,1994830,2114580,"Cincinnati","OH","Ohio",39,39.1411634,-84.5059743,232.3,"1912-07-01","2019-02-28",39.3531,"KINGS MILLS, OH US",0.934,"GHCND:USC00334238","METERS",-84.2602,31.7102031903582
"66",15000,"Cincinnati, OH-KY-IN",1679873,1741049,1832313,1994830,2114580,"Cincinnati","OH","Ohio",39,39.1411634,-84.5059743,269.1,"1948-01-01","2019-02-28",39.0444,"CINCINNATI NORTHERN KENTUCKY INTERNATIONAL AIRPORT, KY US",0.9997,"GHCND:USW00093814","METERS",-84.6724,17.9660579874956
"67",15000,"Cincinnati, OH-KY-IN",1679873,1741049,1832313,1994830,2114580,"Cincinnati","OH","Ohio",39,39.1411634,-84.5059743,149.4,"1948-08-01","2019-02-27",39.10333,"CINCINNATI MUNICIPAL AIRPORT LUNKEN FIELD, OH US",0.923,"GHCND:USW00093812","METERS",-84.41889,8.61970632804765
"68",16000,"Cleveland-Elyria, OH",2321037,2173734,2102248,2148143,2077240,"Cleveland","OH","Ohio",39,41.4792633,-81.6802295,238,"1938-05-01","2019-02-28",41.4057,"CLEVELAND HOPKINS INTERNATIONAL AIRPORT, OH US",1,"GHCND:USW00014820","METERS",-81.852,16.5081128279513
"69",16000,"Cleveland-Elyria, OH",2321037,2173734,2102248,2148143,2077240,"Cleveland","OH","Ohio",39,41.4792633,-81.6802295,182.9,"1950-01-01","2018-12-31",41.7525,"PAINESVILLE 4 NW, OH US",0.9918,"GHCND:USC00336389","METERS",-81.29556,44.1592462426537
"70",16000,"Colorado Springs, CO",239288,317458,409482,537484,645613,"Colorado Springs","CO","Colorado",8,38.867391,-104.7606416,1884,"1942-09-01","2019-02-28",38.81,"COLORADO SPRINGS MUNICIPAL AIRPORT, CO US",0.927,"GHCND:USW00093037","METERS",-104.6884,8.94723647396235
"71",16000,"Colorado Springs, CO",239288,317458,409482,537484,645613,"Colorado Springs","CO","Colorado",8,38.867391,-104.7606416,2197.6,"1956-04-01","2019-02-27",39.1091,"EASTONVILLE 2 NNW, CO US",0.9916,"GHCND:USC00052494","METERS",-104.5997,30.2969343138467
"72",16000,"Colorado Springs, CO",239288,317458,409482,537484,645613,"Colorado Springs","CO","Colorado",8,38.867391,-104.7606416,2758.4,"1959-09-01","2019-02-27",38.8416,"RUXTON PARK, CO US",0.9885,"GHCND:USC00057309","METERS",-104.9742,18.7344846448501
"73",16000,"Columbia, SC",402914,498159,548335,647158,767598,"Columbia","SC","South Carolina",45,34.0369632,-80.9040679,74.4,"1930-01-01","2019-02-26",33.99151,"COLUMBIA UNIVERSITY OF SC, SC US",0.9726,"GHCND:USC00381944","METERS",-81.02409,12.175871890413
"74",16000,"Columbia, SC",402914,498159,548335,647158,767598,"Columbia","SC","South Carolina",45,34.0369632,-80.9040679,68.6,"1942-04-24","2019-02-28",33.9419,"COLUMBIA METROPOLITAN AIRPORT, SC US",0.9259,"GHCND:USW00013883","METERS",-81.1181,22.4109118183332
"75",16000,"Columbia, SC",402914,498159,548335,647158,767598,"Columbia","SC","South Carolina",45,34.0369632,-80.9040679,134.1,"1957-07-01","2018-11-02",34.13112,"SANDHILL RESEARCH ELGIN, SC US",0.9615,"GHCND:USC00387666","METERS",-80.86852,10.9819348864511
"76",18000,"Columbus, OH",1218536,1325649,1462258,1675013,1901974,"Columbus","OH","Ohio",39,39.9860266,-82.9851258,248.7,"1945-04-01","2019-02-28",39.9907,"PORT COLUMBUS INTERNATIONAL AIRPORT, OH US",0.9627,"GHCND:USW00014821","METERS",-82.877,9.23673381667424
"77",18000,"Columbus, OH",1218536,1325649,1462258,1675013,1901974,"Columbus","OH","Ohio",39,39.9860266,-82.9851258,231.6,"1946-01-01","2015-01-31",39.9047,"COLUMBUS VLY CROSSING, OH US",0.956,"GHCND:USC00331783","METERS",-82.9199,10.6277158218628
"78",18000,"Columbus, OH",1218536,1325649,1462258,1675013,1901974,"Columbus","OH","Ohio",39,39.9860266,-82.9851258,244.4,"1952-05-01","2019-02-27",40.1268,"WESTERVILLE, OH US",0.9855,"GHCND:USC00338951","METERS",-82.9441,16.0559638597831
"79",19000,"Dallas-Fort Worth-Arlington, TX",2428720,3034207,4018778,5204126,6426214,"Dallas","TX","Texas",48,32.7937262,-96.7662289,163.4,"1893-01-01","2019-02-28",32.7572,"ARLINGTON SIX FLAGS, TX US",0.5602,"GHCND:USC00410337","METERS",-97.0736,29.0550010279678
"80",19000,"Dallas-Fort Worth-Arlington, TX",2428720,3034207,4018778,5204126,6426214,"Dallas","TX","Texas",48,32.7937262,-96.7662289,178.3,"1897-01-01","2019-02-25",32.9506,"GRAPEVINE DAM, TX US",0.6992,"GHCND:USC00413691","METERS",-97.0553,32.1777565887148
"81",19000,"Dallas-Fort Worth-Arlington, TX",2428720,3034207,4018778,5204126,6426214,"Dallas","TX","Texas",48,32.7937262,-96.7662289,134.1,"1939-08-01","2019-02-28",32.8519,"DALLAS FAA AIRPORT, TX US",0.9996,"GHCND:USW00013960","METERS",-96.8555,10.567759629994
"82",19000,"Dallas-Fort Worth-Arlington, TX",2428720,3034207,4018778,5204126,6426214,"Dallas","TX","Texas",48,32.7937262,-96.7662289,143.3,"1940-01-01","2018-12-31",32.5338,"FERRIS, TX US",0.9127,"GHCND:USC00413133","METERS",-96.6608,30.5752206020934
"83",19000,"Dallas-Fort Worth-Arlington, TX",2428720,3034207,4018778,5204126,6426214,"Dallas","TX","Texas",48,32.7937262,-96.7662289,206.7,"1946-07-21","2018-12-31",32.9963,"RICHARDSON, TX US",0.9449,"GHCND:USC00417588","METERS",-96.7427,22.6574028198715
"84",19000,"Dallas-Fort Worth-Arlington, TX",2428720,3034207,4018778,5204126,6426214,"Dallas","TX","Texas",48,32.7937262,-96.7662289,170.7,"1948-01-01","2019-02-28",32.8978,"DAL FTW WSCMO AIRPORT, TX US",1,"GHCND:USW00003927","METERS",-97.0189,26.3178304933794
"85",19000,"Dallas-Fort Worth-Arlington, TX",2428720,3034207,4018778,5204126,6426214,"Dallas","TX","Texas",48,32.7937262,-96.7662289,155.4,"1949-07-01","2018-12-31",33.0352,"LAVON DAM, TX US",0.9771,"GHCND:USC00415094","METERS",-96.4861,37.5216360351124
"86",19000,"Dallas-Fort Worth-Arlington, TX",2428720,3034207,4018778,5204126,6426214,"Dallas","TX","Texas",48,32.7937262,-96.7662289,169.5,"1964-02-01","2018-12-31",33.0694,"LEWISVILLE DAM, TX US",0.8895,"GHCND:USC00415192","METERS",-97.0094,38.1830784298454
"87",21000,"Dayton, OH",815547,791847,803722,805816,799232,"Dayton","OH","Ohio",39,39.7797633,-84.199787,219.5,"1893-06-01","2018-12-31",39.7633,"DAYTON MCD, OH US",0.9087,"GHCND:USC00332067","METERS",-84.1911,1.97766979367507
"88",21000,"Dayton, OH",815547,791847,803722,805816,799232,"Dayton","OH","Ohio",39,39.7797633,-84.199787,266.4,"1914-01-01","2019-02-28",39.9317,"NEW CARLISLE, OH US",0.901,"GHCND:USC00335786","METERS",-84.0329,22.1236264330683
"89",21000,"Dayton, OH",815547,791847,803722,805816,799232,"Dayton","OH","Ohio",39,39.7797633,-84.199787,303.9,"1916-11-01","2018-12-31",39.6041,"XENIA 6 SSE, OH US",0.9626,"GHCND:USC00339361","METERS",-83.9072,31.7888061757229
"90",21000,"Dayton, OH",815547,791847,803722,805816,799232,"Dayton","OH","Ohio",39,39.7797633,-84.199787,261.2,"1922-03-01","2019-02-28",40.0553,"PLEASANT HILL, OH US",0.9555,"GHCND:USC00336697","METERS",-84.3581,33.5187171722978
"91",21000,"Dayton, OH",815547,791847,803722,805816,799232,"Dayton","OH","Ohio",39,39.7797633,-84.199787,196.9,"1923-07-01","2018-12-31",39.5161,"MIDDLETOWN, OH US",0.958,"GHCND:USC00335220","METERS",-84.4071,34.3107735396559
"92",21000,"Dayton, OH",815547,791847,803722,805816,799232,"Dayton","OH","Ohio",39,39.7797633,-84.199787,207,"1923-07-01","2018-12-31",39.5536,"FRANKLIN, OH US",0.964,"GHCND:USC00332928","METERS",-84.319,27.1699225910199
"93",21000,"Dayton, OH",815547,791847,803722,805816,799232,"Dayton","OH","Ohio",39,39.7797633,-84.199787,249.3,"1939-01-01","2018-12-31",39.9528,"TIPP CITY, OH US",0.9687,"GHCND:USC00338332","METERS",-84.169,19.4411422097699
"94",21000,"Dayton, OH",815547,791847,803722,805816,799232,"Dayton","OH","Ohio",39,39.7797633,-84.199787,305.7,"1948-01-01","2019-02-28",39.9064,"DAYTON INTERNATIONAL AIRPORT, OH US",0.9999,"GHCND:USW00093815","METERS",-84.2185,14.187576065783
"95",17200,"Deltona-Daytona Beach-Ormond Beach, FL",173941,269675,399413,493175,590289,"Deltona","FL","Florida",12,28.9049944,-81.2136442,7.6,"1892-01-01","2019-02-28",29.0181,"DELAND 1 SSE, FL US",0.9042,"GHCND:USC00082229","METERS",-81.3106,15.7386892629856
"96",17200,"Deltona-Daytona Beach-Ormond Beach, FL",173941,269675,399413,493175,590289,"Deltona","FL","Florida",12,28.9049944,-81.2136442,9.4,"1937-01-01","2019-02-28",29.1828,"DAYTONA BEACH INTERNATIONAL AIRPORT, FL US",1,"GHCND:USW00012834","METERS",-81.0483,34.8611525505968
"97",17200,"Deltona-Daytona Beach-Ormond Beach, FL",173941,269675,399413,493175,590289,"Deltona","FL","Florida",12,28.9049944,-81.2136442,16.8,"1945-04-01","2019-02-27",28.77972,"ORLANDO SANFORD AIRPORT, FL US",0.5045,"GHCND:USW00012854","METERS",-81.24361,14.2483126491973
"98",17200,"Deltona-Daytona Beach-Ormond Beach, FL",173941,269675,399413,493175,590289,"Deltona","FL","Florida",12,28.9049944,-81.2136442,3.7,"1956-06-02","2019-02-28",28.8147,"SANFORD, FL US",0.9894,"GHCND:USC00087982","METERS",-81.2778,11.8387380438127
"99",20000,"Denver-Aurora-Lakewood, CO",1116226,1450768,1650489,2157756,2487593,"Denver","CO","Colorado",8,39.7621563,-104.8758189,1702.9,"1918-11-01","2019-02-25",39.49,"KASSLER, CO US",0.983,"GHCND:USC00054452","METERS",-105.0952,35.6605760331894
"100",20000,"Denver-Aurora-Lakewood, CO",1116226,1450768,1650489,2157756,2487593,"Denver","CO","Colorado",8,39.7621563,-104.8758189,1611.2,"1940-05-15","2019-02-28",39.7633,"DENVER STAPLETON, CO US",0.902,"GHCND:USW00023062","METERS",-104.8694,0.563835669695384
"101",20000,"Denver-Aurora-Lakewood, CO",1116226,1450768,1650489,2157756,2487593,"Denver","CO","Colorado",8,39.7621563,-104.8758189,1719.1,"1962-07-28","2019-02-28",39.7488,"LAKEWOOD, CO US",0.9884,"GHCND:USC00054762","METERS",-105.1205,20.9925878455381
"102",21000,"Des Moines-West Des Moines, IA",363419,392141,416346,481394,569633,"Des Moines","IA","Iowa",19,41.5724999,-93.6104336,281.6,"1893-01-01","2019-02-23",41.36639,"INDIANOLA 2 W, IA US",0.9777,"GHCND:USC00134063","METERS",-93.64806,23.157712713882
"103",21000,"Des Moines-West Des Moines, IA",363419,392141,416346,481394,569633,"Des Moines","IA","Iowa",19,41.5724999,-93.6104336,291.7,"1945-07-01","2019-02-28",41.5338,"DES MOINES INTERNATIONAL AIRPORT, IA US",0.9997,"GHCND:USW00014933","METERS",-93.653,5.57972809732743
"104",21000,"Des Moines-West Des Moines, IA",363419,392141,416346,481394,569633,"Des Moines","IA","Iowa",19,41.5724999,-93.6104336,280.4,"1950-05-01","2018-05-06",41.6774,"ANKENY, IA US",0.9735,"GHCND:USC00130241","METERS",-93.5822,11.9114175092336
"105",22000,"Detroit-Warren-Dearborn, MI",4431390,4353413,4248699,4452557,4296250,"Detroit","MI","Michigan",26,42.3834006,-83.1024078,271.3,"1894-06-01","2019-02-27",42.6388,"PONTIAC WWTP, MI US",0.8765,"GHCND:USC00206658","METERS",-83.2555,31.0827077650266
"106",22000,"Detroit-Warren-Dearborn, MI",4431390,4353413,4248699,4452557,4296250,"Detroit","MI","Michigan",26,42.3834006,-83.1024078,176.8,"1896-08-01","2018-12-31",42.6083,"MOUNT CLEMENS SELFRIDGE FIELD, MI US",0.9378,"GHCND:USW00014804","METERS",-82.8183,34.2135762188695
"107",22000,"Detroit-Warren-Dearborn, MI",4431390,4353413,4248699,4452557,4296250,"Detroit","MI","Michigan",26,42.3834006,-83.1024078,192.3,"1942-08-01","2019-02-28",42.2313,"DETROIT METRO AIRPORT, MI US",0.7867,"GHCND:USW00094847","METERS",-83.3308,25.3025649786455
"108",22000,"Detroit-Warren-Dearborn, MI",4431390,4353413,4248699,4452557,4296250,"Detroit","MI","Michigan",26,42.3834006,-83.1024078,190.8,"1948-01-01","2019-02-27",42.40917,"DETROIT CITY AIRPORT, MI US",0.983,"GHCND:USW00014822","METERS",-83.01,8.12035686584456
"109",22000,"Detroit-Warren-Dearborn, MI",4431390,4353413,4248699,4452557,4296250,"Detroit","MI","Michigan",26,42.3834006,-83.1024078,186.8,"1950-11-02","2019-02-28",42.4077,"GROSSE POINTE FARMS, MI US",0.9766,"GHCND:USC00203477","METERS",-82.8891,17.7434941523876
"110",22000,"Detroit-Warren-Dearborn, MI",4431390,4353413,4248699,4452557,4296250,"Detroit","MI","Michigan",26,42.3834006,-83.1024078,184.4,"1952-08-02","2019-02-28",42.3195,"DEARBORN, MI US",0.9717,"GHCND:USC00202015","METERS",-83.2377,13.2091653208829
"111",19000,"Durham-Chapel Hill, NC",245856,292419,344625,426493,504357,"Durham","NC","North Carolina",37,35.9797218,-78.9037628,152.4,"1891-01-01","2019-02-28",35.9086,"CHAPEL HILL 2 W, NC US",0.9501,"GHCND:USC00311677","METERS",-79.0794,17.698552378365
"112",19000,"Durham-Chapel Hill, NC",245856,292419,344625,426493,504357,"Durham","NC","North Carolina",37,35.9797218,-78.9037628,121.9,"1892-01-15","2018-12-31",35.7944,"RALEIGH STATE UNIVERSITY, NC US",0.9625,"GHCND:USC00317079","METERS",-78.6988,27.7001145215744
"113",19000,"Durham-Chapel Hill, NC",245856,292419,344625,426493,504357,"Durham","NC","North Carolina",37,35.9797218,-78.9037628,126.8,"1944-05-18","2019-02-27",35.8923,"RALEIGH AIRPORT, NC US",1,"GHCND:USW00013722","METERS",-78.7819,14.6748220064952
"114",19000,"Durham-Chapel Hill, NC",245856,292419,344625,426493,504357,"Durham","NC","North Carolina",37,35.9797218,-78.9037628,108.2,"1956-02-01","2017-06-30",36.1414,"BUTNER FILTER PLANT, NC US",0.9782,"GHCND:USC00311285","METERS",-78.7736,21.4739012523862
"115",24000,"El Paso, TX",361683,482627,594525,682966,804123,"El Paso","TX","Texas",48,31.8479318,-106.4308868,1194.2,"1938-04-01","2019-02-28",31.81111,"EL PASO INTERNATIONAL AIRPORT, TX US",0.9998,"GHCND:USW00023044","METERS",-106.37583,6.62699012537056
"116",27000,"Fresno, CA",413053,514621,667490,799407,930450,"Fresno","CA","California",6,36.7833796,-119.7941087,125,"1912-08-01","2019-02-28",36.9969,"FRIANT GOVERNMENT CAMP, CA US",0.8739,"GHCND:USC00043261","METERS",-119.7072,24.9967122202936
"117",27000,"Fresno, CA",413053,514621,667490,799407,930450,"Fresno","CA","California",6,36.7833796,-119.7941087,82.3,"1928-01-01","2018-11-30",36.9539,"MADERA, CA US",0.9659,"GHCND:USC00045233","METERS",-120.0378,28.8326184936021
"118",27000,"Fresno, CA",413053,514621,667490,799407,930450,"Fresno","CA","California",6,36.7833796,-119.7941087,101.5,"1941-12-04","2019-02-28",36.78,"FRESNO YOSEMITE INTERNATIONAL, CA US",0.9213,"GHCND:USW00093193","METERS",-119.7194,6.67151764020756
"119",34000,"Grand Rapids-Wyoming, MI",617051,695016,791515,930670,988938,"Grand Rapids","MI","Michigan",26,42.9614791,-85.655761,195.1,"1915-05-01","2019-02-28",42.9291,"LOWELL, MI US",0.9424,"GHCND:USC00204944","METERS",-85.3402,25.9653014838934
"120",34000,"Grand Rapids-Wyoming, MI",617051,695016,791515,930670,988938,"Grand Rapids","MI","Michigan",26,42.9614791,-85.655761,256,"1919-06-01","2019-02-02",43.1994,"KENT CITY 2 SW, MI US",0.9163,"GHCND:USC00204320","METERS",-85.7717,28.1127985818318
"121",34000,"Grand Rapids-Wyoming, MI",617051,695016,791515,930670,988938,"Grand Rapids","MI","Michigan",26,42.9614791,-85.655761,244.8,"1963-11-24","2019-02-28",42.8825,"GRAND RAPIDS GERALD R FORD INTERNATIONAL AIRPORT, MI US",1,"GHCND:USW00094860","METERS",-85.52389,13.8872212158023
"122",28000,"Greensboro-High Point, NC",437350,492308,540030,643430,723801,"Greensboro","NC","North Carolina",37,36.0956486,-79.8270048,246.9,"1905-01-04","2018-12-31",35.8222,"RANDLEMAN, NC US",0.9808,"GHCND:USC00317097","METERS",-79.7917,30.6059332467466
"123",28000,"Greensboro-High Point, NC",437350,492308,540030,643430,723801,"Greensboro","NC","North Carolina",37,36.0956486,-79.8270048,274.3,"1921-07-01","2018-12-31",35.9672,"HIGH POINT, NC US",0.982,"GHCND:USC00314063","METERS",-79.9722,19.3728358391486
"124",28000,"Greensboro-High Point, NC",437350,492308,540030,643430,723801,"Greensboro","NC","North Carolina",37,36.0956486,-79.8270048,271.3,"1928-11-01","2019-02-28",36.0969,"GREENSBORO AIRPORT, NC US",1,"GHCND:USW00013723","METERS",-79.9432,10.4526031212467
"125",28000,"Greensboro-High Point, NC",437350,492308,540030,643430,723801,"Greensboro","NC","North Carolina",37,36.0956486,-79.8270048,233.2,"1948-11-01","2018-12-31",36.0811,"GREENSBORO WTP, NC US",0.5904,"GHCND:USC00313625","METERS",-79.8047,2.57855988184994
"126",28000,"Greensboro-High Point, NC",437350,492308,540030,643430,723801,"Greensboro","NC","North Carolina",37,36.0956486,-79.8270048,271.3,"1962-02-01","2019-02-28",36.3796,"REIDSVILLE 2 NW, NC US",0.9955,"GHCND:USC00317202","METERS",-79.6944,33.7773096371392
"127",30850,"Greenville-Anderson-Mauldin, SC",454689,552654,617349,725680,824112,"Greenville","SC","South Carolina",45,34.8363741,-82.3651182,345.9,"1943-06-01","2019-02-28",35.02695,"CLEVELAND 3 S, SC US",0.9602,"GHCND:USC00381804","METERS",-82.50145,24.5942019145505
"128",30850,"Greenville-Anderson-Mauldin, SC",454689,552654,617349,725680,824112,"Greenville","SC","South Carolina",45,34.8363741,-82.3651182,287.4,"1962-10-15","2019-02-28",34.8842,"GRNVL SPART INTERNATIONAL AIRPORT, SC US",1,"GHCND:USW00003870","METERS",-82.2209,14.2084808926092
"129",32800,"Harrisburg-Carlisle, PA",410626,446576,474242,509074,549475,"Harrisburg","PA","Pennsylvania",42,40.2752111,-76.8842483,94.5,"1921-03-02","2017-12-31",40.11389,"YORK HAVEN, PA US",0.9818,"GHCND:USC00369950","METERS",-76.71222,23.1618798367292
"130",32800,"Harrisburg-Carlisle, PA",410626,446576,474242,509074,549475,"Harrisburg","PA","Pennsylvania",42,40.2752111,-76.8842483,103.6,"1939-01-01","2019-02-27",40.21722,"HARRISBURG CAPITAL CITY AIRPORT, PA US",0.8866,"GHCND:USW00014751","METERS",-76.85139,7.03339243047654
"131",32800,"Harrisburg-Carlisle, PA",410626,446576,474242,509074,549475,"Harrisburg","PA","Pennsylvania",42,40.2752111,-76.8842483,95.1,"1941-01-01","2019-02-28",40.1962,"MIDDLETOWN HARRISBURG INTERNATIONAL AIRPORT, PA US",0.6782,"GHCND:USW00014711","METERS",-76.7724,12.9500623509281
"132",37000,"Hartford-West Hartford-East Hartford, CT",1034993,1051606,1123678,1148618,1212381,"Hartford","CT","Connecticut",9,41.7660707,-72.6834012,5.8,"1920-01-01","2019-02-27",41.73611,"HARTFORD BRAINARD FIELD, CT US",0.9805,"GHCND:USW00014752","METERS",-72.65056,4.3084276536034
"133",37000,"Hartford-West Hartford-East Hartford, CT",1034993,1051606,1123678,1148618,1212381,"Hartford","CT","Connecticut",9,41.7660707,-72.6834012,216.4,"1932-09-01","2019-02-28",41.9211,"BARKHAMSTED, CT US",0.9789,"GHCND:USC00060299","METERS",-72.9637,28.95102517772
"134",37000,"Hartford-West Hartford-East Hartford, CT",1034993,1051606,1123678,1148618,1212381,"Hartford","CT","Connecticut",9,41.7660707,-72.6834012,153.9,"1932-09-01","2019-02-28",41.7944,"BURLINGTON, CT US",0.9685,"GHCND:USC00060973","METERS",-72.932,20.8761462467211
"135",37000,"Hartford-West Hartford-East Hartford, CT",1034993,1051606,1123678,1148618,1212381,"Hartford","CT","Connecticut",9,41.7660707,-72.6834012,53.3,"1942-01-08","2019-02-28",41.9375,"HARTFORD BRADLEY INTERNATIONAL AIRPORT, CT US",0.9093,"GHCND:USW00014740","METERS",-72.6819,19.0838283513979
"136",37000,"Hartford-West Hartford-East Hartford, CT",1034993,1051606,1123678,1148618,1212381,"Hartford","CT","Connecticut",9,41.7660707,-72.6834012,126.5,"1948-06-01","2018-12-31",41.6445,"SHUTTLE MEADOW RESERVOIR, CT US",0.8807,"GHCND:USC00067432","METERS",-72.8167,17.4892846223991
"137",37000,"Hartford-West Hartford-East Hartford, CT",1034993,1051606,1123678,1148618,1212381,"Hartford","CT","Connecticut",9,41.7660707,-72.6834012,209.1,"1948-06-02","2019-02-28",41.8418,"BAKERSVILLE, CT US",0.7621,"GHCND:USC00060227","METERS",-73.0085,28.2634819324354
"138",35000,"Houston-The Woodlands-Sugar Land, TX",2195146,3137557,3750963,4693161,5920416,"Houston","TX","Texas",48,29.7865417,-95.3900821,13.4,"1930-08-01","2019-02-28",29.63806,"HOUSTON WILLIAM P HOBBY AIRPORT, TX US",0.9556,"GHCND:USW00012918","METERS",-95.28194,19.55821906096
"139",35000,"Houston-The Woodlands-Sugar Land, TX",2195146,3137557,3750963,4693161,5920416,"Houston","TX","Texas",48,29.7865417,-95.3900821,45.7,"1943-01-01","2018-12-31",30.021,"CYPRESS, TX US",0.9029,"GHCND:USC00412206","METERS",-95.7069,40.1979714105557
"140",35000,"Houston-The Woodlands-Sugar Land, TX",2195146,3137557,3750963,4693161,5920416,"Houston","TX","Texas",48,29.7865417,-95.3900821,34.1,"1947-09-01","2018-12-31",29.8732,"HOUSTON NORTH HOUSTON, TX US",0.9727,"GHCND:USC00414327","METERS",-95.5274,16.3984656475681
"141",35000,"Houston-The Woodlands-Sugar Land, TX",2195146,3137557,3750963,4693161,5920416,"Houston","TX","Texas",48,29.7865417,-95.3900821,15.2,"1948-06-01","2019-02-28",29.66,"HOUSTON WESTBURY, TX US",0.9421,"GHCND:USC00414325","METERS",-95.6275,26.9299557354161
"142",36003,"Indianapolis-Carmel-Anderson, IN",1284322,1347451,1424886,1658462,1887877,"Indianapolis","IN","Indiana",18,39.777123,-86.1457893,229.2,"1893-01-01","2019-02-28",39.5282,"SHELBYVILLE SEWAGE PLANT, IN US",0.921,"GHCND:USC00127999","METERS",-85.7914,41.114654017726
"143",36003,"Indianapolis-Carmel-Anderson, IN",1284322,1347451,1424886,1658462,1887877,"Indianapolis","IN","Indiana",18,39.777123,-86.1457893,286.8,"1901-01-01","2018-12-31",39.9962,"WHITESTOWN, IN US",0.9975,"GHCND:USC00129557","METERS",-86.3543,30.1986762747191
"144",36003,"Indianapolis-Carmel-Anderson, IN",1284322,1347451,1424886,1658462,1887877,"Indianapolis","IN","Indiana",18,39.777123,-86.1457893,241.1,"1942-10-06","2019-02-28",39.72517,"INDIANAPOLIS INTERNATIONAL AIRPORT, IN US",0.9314,"GHCND:USW00093819","METERS",-86.28168,12.9888877441262
"145",36000,"Jackson, MS",360643,439331,472447,525346,567122,"Jackson","MS","Mississippi",28,32.3162638,-90.212457,100.6,"1942-09-01","2019-02-28",32.3205,"JACKSON INTERNATIONAL AIRPORT, MS US",0.7665,"GHCND:USW00003940","METERS",-90.0777,12.6860355028845
"146",36000,"Jackson, MS",360643,439331,472447,525346,567122,"Jackson","MS","Mississippi",28,32.3162638,-90.212457,91.4,"1946-09-01","2015-07-31",32.5008,"GOSHEN SPRINGS 3 NW, MS US",0.8939,"GHCND:USC00223516","METERS",-89.9255,33.9012683496746
"147",36000,"Jackson, MS",360643,439331,472447,525346,567122,"Jackson","MS","Mississippi",28,32.3162638,-90.212457,62.5,"1948-07-01","2019-02-28",32.2061,"OAKLEY EXPERIMENTAL STATION, MS US",0.9862,"GHCND:USC00226476","METERS",-90.5133,30.860870250026
"148",35000,"Jacksonville, FL",621519,737541,925213,1122750,1345596,"Jacksonville","FL","Florida",12,30.3369879,-81.66018,7.9,"1938-04-01","2019-02-28",30.495,"JACKSONVILLE INTERNATIONAL AIRPORT, FL US",0.9979,"GHCND:USW00013889","METERS",-81.6936,17.8800183114691
"149",35000,"Jacksonville, FL",621519,737541,925213,1122750,1345596,"Jacksonville","FL","Florida",12,30.3369879,-81.66018,3,"1944-07-24","2019-02-27",30.2875,"JACKSONVILLE BEACH, FL US",0.9857,"GHCND:USC00084366","METERS",-81.3927,26.2887203405948
"150",35000,"Jacksonville, FL",621519,737541,925213,1122750,1345596,"Jacksonville","FL","Florida",12,30.3369879,-81.66018,6.1,"1945-01-01","2019-02-27",30.23333,"JACKSONVILLE NAS, FL US",0.962,"GHCND:USW00093837","METERS",-81.66667,11.555997053753
"151",35000,"Jacksonville, FL",621519,737541,925213,1122750,1345596,"Jacksonville","FL","Florida",12,30.3369879,-81.66018,4.9,"1959-10-01","2019-02-27",30.4,"MAYPORT PILOT STATION, FL US",0.7365,"GHCND:USW00003853","METERS",-81.41667,24.4172773794574
"152",38000,"Kansas City, MO-KS",1414786,1482141,1614534,1811254,2009342,"Kansas City","MO","Missouri",29,39.1239336,-94.5541275,226.2,"1934-01-01","2019-02-27",39.1208,"KANSAS CITY DOWNTOWN AIRPORT, MO US",0.9127,"GHCND:USW00013988","METERS",-94.5969,3.7103390235273
"153",38000,"Kansas City, MO-KS",1414786,1482141,1614534,1811254,2009342,"Kansas City","MO","Missouri",29,39.1239336,-94.5541275,253,"1938-01-01","2019-02-28",39.0636,"BONNER SPRINGS, KS US",0.9896,"GHCND:USC00140957","METERS",-94.8959,30.282202666623
"154",40000,"Knoxville, TN",526168,621773,651618,748259,837571,"Knoxville","TN","Tennessee",47,35.9693452,-83.9493902,293.2,"1910-01-01","2019-02-28",35.8181,"KNOXVILLE AIRPORT, TN US",0.9997,"GHCND:USW00013891","METERS",-83.9858,17.1537198618878
"155",40000,"Knoxville, TN",526168,621773,651618,748259,837571,"Knoxville","TN","Tennessee",47,35.9693452,-83.9493902,338.3,"1935-01-01","2019-02-28",36.213,"NORRIS, TN US",0.8653,"GHCND:USC00406619","METERS",-84.0602,28.8971383991656
"156",40000,"Knoxville, TN",526168,621773,651618,748259,837571,"Knoxville","TN","Tennessee",47,35.9693452,-83.9493902,310.6,"1948-08-01","2018-12-31",35.998,"OAK RIDGE ATDD, TN US",0.9955,"GHCND:USW00003841","METERS",-84.2192,24.5123552502112
"157",40000,"Knoxville, TN",526168,621773,651618,748259,837571,"Knoxville","TN","Tennessee",47,35.9693452,-83.9493902,274,"1955-05-01","2018-12-31",35.9296,"SEVIERVILLE, TN US",0.9726,"GHCND:USC00408179","METERS",-83.5983,31.9470432128636
"158",40000,"Knoxville, TN",526168,621773,651618,748259,837571,"Knoxville","TN","Tennessee",47,35.9693452,-83.9493902,239.3,"1962-08-01","2019-02-25",35.7875,"LENOIR CITY, TN US",0.9739,"GHCND:USC00405158","METERS",-84.2622,34.7253389669619
"159",38250,"Lakeland-Winter Haven, FL",227222,321652,405382,483924,602095,"Lakeland","FL","Florida",12,28.0557146,-81.9543299,33.8,"1892-01-01","2019-02-13",27.88608,"BARTOW 1 SE, FL US",0.9767,"GHCND:USC00080478","METERS",-81.83251,22.3614806888422
"160",38250,"Lakeland-Winter Haven, FL",227222,321652,405382,483924,602095,"Lakeland","FL","Florida",12,28.0557146,-81.9543299,36.6,"1892-09-01","2019-02-27",28.0236,"PLANT CITY, FL US",0.9328,"GHCND:USC00087205","METERS",-82.1422,18.8018162079373
"161",38250,"Lakeland-Winter Haven, FL",227222,321652,405382,483924,602095,"Lakeland","FL","Florida",12,28.0557146,-81.9543299,57.9,"1895-03-01","2018-12-31",28.3378,"SAINT LEO, FL US",0.9907,"GHCND:USC00087851","METERS",-82.26,43.4211975742739
"162",38250,"Lakeland-Winter Haven, FL",227222,321652,405382,483924,602095,"Lakeland","FL","Florida",12,28.0557146,-81.9543299,16.2,"1943-08-08","2018-12-31",28.1469,"HILLSBOROUGH RVR ST PARK, FL US",0.9017,"GHCND:USC00083986","METERS",-82.2276,28.6899302715331
"163",38250,"Lakeland-Winter Haven, FL",227222,321652,405382,483924,602095,"Lakeland","FL","Florida",12,28.0557146,-81.9543299,45.1,"1948-07-01","2019-02-27",28,"LAKELAND LINDER REGIONAL AIRPORT, FL US",0.6679,"GHCND:USW00012883","METERS",-82.05,11.2624796943186
"164",40000,"Las Vegas-Henderson-Paradise, NV",273288,463087,741459,1375765,1951269,"Las Vegas","NV","Nevada",32,36.2290417,-115.2606688,888.2,"1940-04-01","2019-02-27",36.4381,"DESERT NATIONAL WILDLIFE RANGE, NV US",0.9707,"GHCND:USC00262243","METERS",-115.3601,24.9219826351136
"165",40000,"Las Vegas-Henderson-Paradise, NV",273288,463087,741459,1375765,1951269,"Las Vegas","NV","Nevada",32,36.2290417,-115.2606688,664.5,"1948-09-06","2019-02-28",36.0719,"LAS VEGAS MCCARRAN INTERNATIONAL AIRPORT, NV US",0.9998,"GHCND:USW00023169","METERS",-115.1634,19.5562400891819
"166",40000,"Las Vegas-Henderson-Paradise, NV",273288,463087,741459,1375765,1951269,"Las Vegas","NV","Nevada",32,36.2290417,-115.2606688,578.5,"1951-02-01","2016-06-30",36.2347,"NORTH LAS VEGAS, NV US",0.5515,"GHCND:USC00265705","METERS",-115.1163,12.9787192350836
"167",41000,"Little Rock-North Little Rock-Conway, AR",396462,494758,535034,610518,699757,"Little Rock","AR","Arkansas",5,34.7254903,-92.3580741,94.5,"1907-03-01","2018-12-31",34.5675,"BENTON, AR US",0.7665,"GHCND:USC00030582","METERS",-92.6006,28.3305613683447
"168",41000,"Little Rock-North Little Rock-Conway, AR",396462,494758,535034,610518,699757,"Little Rock","AR","Arkansas",5,34.7254903,-92.3580741,91.4,"1918-04-03","2019-02-27",34.9818,"CABOT, AR US",0.6867,"GHCND:USC00031102","METERS",-92.0064,42.9666945513214
"169",41000,"Little Rock-North Little Rock-Conway, AR",396462,494758,535034,610518,699757,"Little Rock","AR","Arkansas",5,34.7254903,-92.3580741,78.6,"1938-04-01","2019-02-27",34.7273,"LITTLE ROCK AIRPORT ADAMS FIELD, AR US",0.999,"GHCND:USW00013963","METERS",-92.2389,10.9052717226171
"170",41000,"Little Rock-North Little Rock-Conway, AR",396462,494758,535034,610518,699757,"Little Rock","AR","Arkansas",5,34.7254903,-92.3580741,108.2,"1941-12-19","2019-02-28",34.6886,"CRYSTAL VALLEY, AR US",0.9494,"GHCND:USC00031750","METERS",-92.45,9.36123615594847
"171",41000,"Little Rock-North Little Rock-Conway, AR",396462,494758,535034,610518,699757,"Little Rock","AR","Arkansas",5,34.7254903,-92.3580741,93,"1957-01-01","2019-02-25",34.8511,"LAKE MAUMELLE, AR US",0.934,"GHCND:USC00034010","METERS",-92.4889,18.400322739918
"172",44000,"Los Angeles-Long Beach-Anaheim, CA",8452461,9410212,11273720,12365627,12828837,"Los Angeles","CA","California",6,34.1564893,-118.5399543,54.6,"1906-04-01","2019-02-27",34.0236,"LOS ANGELES DOWNTOWN USC, CA US",0.9298,"GHCND:USW00093134","METERS",-118.2911,27.2977638157705
"173",44000,"Los Angeles-Long Beach-Anaheim, CA",8452461,9410212,11273720,12365627,12828837,"Los Angeles","CA","California",6,34.1564893,-118.5399543,131.1,"1933-03-01","2019-02-26",34.0697,"U C L A, CA US",0.9816,"GHCND:USC00049152","METERS",-118.4427,13.1789508071826
"174",44000,"Los Angeles-Long Beach-Anaheim, CA",8452461,9410212,11273720,12365627,12828837,"Los Angeles","CA","California",6,34.1564893,-118.5399543,28,"1935-01-01","2019-02-27",34.005,"CULVER CITY, CA US",0.9417,"GHCND:USC00042214","METERS",-118.4139,20.480744813057
"175",44000,"Los Angeles-Long Beach-Anaheim, CA",8452461,9410212,11273720,12365627,12828837,"Los Angeles","CA","California",6,34.1564893,-118.5399543,199.6,"1939-12-01","2019-02-28",34.1866,"BURBANK VALLEY PUMP PLANT, CA US",0.9861,"GHCND:USC00041194","METERS",-118.348,17.9941768077075
"176",44000,"Los Angeles-Long Beach-Anaheim, CA",8452461,9410212,11273720,12365627,12828837,"Los Angeles","CA","California",6,34.1564893,-118.5399543,472.4,"1943-05-01","2018-12-31",34.3294,"PACOIMA DAM FC33A E, CA US",0.9289,"GHCND:USC00046602","METERS",-118.4005,23.1340622722652
"177",44000,"Los Angeles-Long Beach-Anaheim, CA",8452461,9410212,11273720,12365627,12828837,"Los Angeles","CA","California",6,34.1564893,-118.5399543,29.6,"1944-01-01","2019-02-28",33.938,"LOS ANGELES INTERNATIONAL AIRPORT, CA US",0.9922,"GHCND:USW00023174","METERS",-118.3888,28.0346814138395
"178",44000,"Los Angeles-Long Beach-Anaheim, CA",8452461,9410212,11273720,12365627,12828837,"Los Angeles","CA","California",6,34.1564893,-118.5399543,240.8,"1949-07-01","2019-02-27",34.1819,"WOODLAND HILLS PIERCE COLLEGE, CA US",0.9969,"GHCND:USC00049785","METERS",-118.5744,4.25051112256444
"179",44000,"Los Angeles-Long Beach-Anaheim, CA",8452461,9410212,11273720,12365627,12828837,"Los Angeles","CA","California",6,34.1564893,-118.5399543,217,"1959-06-01","2018-12-31",34.4061,"PIRU 2 ESE, CA US",0.937,"GHCND:USC00046940","METERS",-118.7569,34.2095015843384
"180",48006,"Louisville/Jefferson County, KY-IN",964921,1024032,1023084,1121109,1235708,"Louisville/Jefferson County","KY","Kentucky",21,38.166342,-85.6484466,152.4,"1902-04-23","2018-12-31",38.0144,"TAYLORSVILLE 2 SW, KY US",0.8757,"GHCND:USC00157948","METERS",-85.3713,29.5918986081229
"181",48006,"Louisville/Jefferson County, KY-IN",964921,1024032,1023084,1121109,1235708,"Louisville/Jefferson County","KY","Kentucky",21,38.166342,-85.6484466,148.7,"1948-01-01","2019-02-28",38.1811,"LOUISVILLE INTERNATIONAL AIRPORT, KY US",0.9998,"GHCND:USW00093821","METERS",-85.7391,8.10164579455247
"182",48006,"Louisville/Jefferson County, KY-IN",964921,1024032,1023084,1121109,1235708,"Louisville/Jefferson County","KY","Kentucky",21,38.166342,-85.6484466,134.1,"1948-06-01","2019-02-28",38.27778,"LOUISVILLE UPPR GAGE, KY US",0.9802,"GHCND:USC00154955","METERS",-85.79167,17.6289222930384
"183",48006,"Louisville/Jefferson County, KY-IN",964921,1024032,1023084,1121109,1235708,"Louisville/Jefferson County","KY","Kentucky",21,38.166342,-85.6484466,187.5,"1948-12-01","2019-02-27",38.0544,"SHEPHERDSVILLE 5 NE, KY US",0.9629,"GHCND:USC00157334","METERS",-85.6241,12.6424744757968
"184",48000,"Madison, WI",376442,416581,462662,535421,605435,"Madison","WI","Wisconsin",55,43.0808414,-89.3921668,256,"1931-02-01","2019-02-28",42.9108,"STOUGHTON, WI US",0.9492,"GHCND:USC00478229","METERS",-89.2133,23.8828673619901
"185",48000,"Madison, WI",376442,416581,462662,535421,605435,"Madison","WI","Wisconsin",55,43.0808414,-89.3921668,264,"1939-10-01","2019-02-28",43.1405,"MADISON DANE CO REGIONAL AIRPORT, WI US",1,"GHCND:USW00014837","METERS",-89.3452,7.65986052178363
"186",48000,"Madison, WI",376442,416581,462662,535421,605435,"Madison","WI","Wisconsin",55,43.0808414,-89.3921668,277.4,"1959-08-01","2019-02-27",43.0596,"CHARMANY FARM, WI US",0.9304,"GHCND:USC00471416","METERS",-89.4819,7.67072558887071
"187",48000,"Madison, WI",376442,416581,462662,535421,605435,"Madison","WI","Wisconsin",55,43.0808414,-89.3921668,329.2,"1962-06-01","2019-02-28",43.3008,"ARLINGTON UNIVERSITY FARM, WI US",0.9946,"GHCND:USC00470308","METERS",-89.3269,25.052097180115
"188",45384,"McAllen-Edinburg-Mission, TX",181535,283229,383545,569463,774769,"Mc","TX","Texas",48,26.2324293,-98.24671,22.9,"1914-02-01","2019-02-28",26.178,"WESLACO, TX US",0.9279,"GHCND:USC00419588","METERS",-97.9708,28.2155379027494
"189",45384,"McAllen-Edinburg-Mission, TX",181535,283229,383545,569463,774769,"Mc","TX","Texas",48,26.2324293,-98.24671,30.5,"1941-06-01","2019-02-28",26.1916,"MCALLEN, TX US",0.9525,"GHCND:USC00415701","METERS",-98.2511,4.56619467117722
"190",45384,"McAllen-Edinburg-Mission, TX",181535,283229,383545,569463,774769,"Mc","TX","Texas",48,26.2324293,-98.24671,30.5,"1961-01-14","2019-02-27",26.18389,"MCALLEN MILLER INTERNATIONAL AIRPORT, TX US",0.9971,"GHCND:USW00012959","METERS",-98.25389,5.45074752313345
"191",48000,"Memphis, TN-MS-AR",918628,1005997,1075309,1213230,1324829,"Memphis","TN","Tennessee",47,35.1047022,-89.9773929,62.5,"1909-04-22","2018-11-30",34.9044,"LAKE CORMORANT, MS US",0.6695,"GHCND:USC00224842","METERS",-90.2119,30.8935158934179
"192",48000,"Memphis, TN-MS-AR",918628,1005997,1075309,1213230,1324829,"Memphis","TN","Tennessee",47,35.1047022,-89.9773929,77.4,"1940-01-01","2019-02-28",35.0564,"MEMPHIS INTERNATIONAL AIRPORT, TN US",1,"GHCND:USW00013893","METERS",-89.9865,5.44060385187358
"193",48000,"Memphis, TN-MS-AR",918628,1005997,1075309,1213230,1324829,"Memphis","TN","Tennessee",47,35.1047022,-89.9773929,115.8,"1946-11-01","2019-02-28",34.923,"PLEASANT HILL, MS US",0.9548,"GHCND:USC00227066","METERS",-89.9402,20.5092648745241
"194",48000,"Memphis, TN-MS-AR",918628,1005997,1075309,1213230,1324829,"Memphis","TN","Tennessee",47,35.1047022,-89.9773929,65.5,"1962-03-01","2019-02-28",35.1242,"WEST MEMPHIS, AR US",0.9702,"GHCND:USC00037712","METERS",-90.1806,18.6308692191766
"195",45000,"Miami-Fort Lauderdale-West Palm Beach, FL",2236645,3220844,4056100,5007564,5564635,"Miami","FL","Florida",12,25.7752566,-80.2088501,2.4,"1927-01-05","2019-02-23",25.8063,"MIAMI BEACH, FL US",0.8437,"GHCND:USW00092811","METERS",-80.1334,8.31458874191247
"196",45000,"Miami-Fort Lauderdale-West Palm Beach, FL",2236645,3220844,4056100,5007564,5564635,"Miami","FL","Florida",12,25.7752566,-80.2088501,3.7,"1940-06-29","2019-02-27",25.8175,"HIALEAH, FL US",0.9826,"GHCND:USC00083909","METERS",-80.2858,9.03297024857662
"197",45000,"Miami-Fort Lauderdale-West Palm Beach, FL",2236645,3220844,4056100,5007564,5564635,"Miami","FL","Florida",12,25.7752566,-80.2088501,8.8,"1948-01-01","2019-02-28",25.7881,"MIAMI INTERNATIONAL AIRPORT, FL US",1,"GHCND:USW00012839","METERS",-80.3169,10.9247191811691
"198",45000,"Miami-Fort Lauderdale-West Palm Beach, FL",2236645,3220844,4056100,5007564,5564635,"Miami","FL","Florida",12,25.7752566,-80.2088501,3,"1958-12-01","2019-02-28",25.5819,"PERRINE 4 W, FL US",0.7107,"GHCND:USC00087020","METERS",-80.4361,31.3542559664063
"199",53000,"Milwaukee-Waukesha-West Allis, WI",1403688,1397143,1432149,1500741,1555908,"Milwaukee","WI","Wisconsin",55,43.0641291,-87.967201,253,"1893-01-01","2019-02-22",43.0063,"WAUKESHA, WI US",0.9485,"GHCND:USC00478937","METERS",-88.2491,23.8235729157568
"200",53000,"Milwaukee-Waukesha-West Allis, WI",1403688,1397143,1432149,1500741,1555908,"Milwaukee","WI","Wisconsin",55,43.0641291,-87.967201,204.2,"1938-04-01","2019-02-28",42.955,"MILWAUKEE MITCHELL INTERNATIONAL AIRPORT, WI US",1,"GHCND:USW00014839","METERS",-87.9044,13.1799845026236
"201",53000,"Milwaukee-Waukesha-West Allis, WI",1403688,1397143,1432149,1500741,1555908,"Milwaukee","WI","Wisconsin",55,43.0641291,-87.967201,259.1,"1944-06-01","2019-02-28",43.2388,"GERMANTOWN, WI US",0.9966,"GHCND:USC00473058","METERS",-88.1222,23.1632295825028
"202",53000,"Milwaukee-Waukesha-West Allis, WI",1403688,1397143,1432149,1500741,1555908,"Milwaukee","WI","Wisconsin",55,43.0641291,-87.967201,221.3,"1946-10-11","2019-02-25",43.0719,"MILWAUKEE MOUNT MARY COLLEGE, WI US",0.9962,"GHCND:USC00475474","METERS",-88.0294,5.13169197624394
"203",43000,"Minneapolis-St. Paul-Bloomington, MN-WI",2079595,2255502,2595109,3031918,3348859,"Minneapolis","MN","Minnesota",27,44.9635053,-93.2678221,207.3,"1893-08-01","2019-02-28",44.7597,"HASTINGS DAM 2, MN US",0.6798,"GHCND:USC00213567","METERS",-92.8689,38.8008588284087
"204",43000,"Minneapolis-St. Paul-Bloomington, MN-WI",2079595,2255502,2595109,3031918,3348859,"Minneapolis","MN","Minnesota",27,44.9635053,-93.2678221,265.8,"1938-04-09","2019-02-28",44.8831,"MINNEAPOLIS ST PAUL INTERNATIONAL AIRPORT, MN US",1,"GHCND:USW00014922","METERS",-93.2289,9.46183231790388
"205",43000,"Minneapolis-St. Paul-Bloomington, MN-WI",2079595,2255502,2595109,3031918,3348859,"Minneapolis","MN","Minnesota",27,44.9635053,-93.2678221,288,"1950-12-01","2019-02-28",44.71668,"ROSEMOUNT RESEARCH AND OUTREACH CENTER, MN US",0.974,"GHCND:USC00217107","METERS",-93.0981,30.568466681072
"206",43000,"Minneapolis-St. Paul-Bloomington, MN-WI",2079595,2255502,2595109,3031918,3348859,"Minneapolis","MN","Minnesota",27,44.9635053,-93.2678221,295.7,"1963-01-01","2019-02-28",44.9902,"UNIVERSITY OF MN ST. PAUL, MN US",0.9968,"GHCND:USC00218450","METERS",-93.17995,7.53072759583861
"207",52006,"Nashville-Davidson--Murfreesboro--Franklin, TN",793062,963757,1103028,1381287,1670890,"Nashville","TN","Tennessee",47,36.1713835,-86.784408,199.6,"1891-08-01","2019-02-28",35.9417,"FRANKLIN SEWAGE PLANT, TN US",0.9728,"GHCND:USC00403280","METERS",-86.8685,26.6647218809774
"208",52006,"Nashville-Davidson--Murfreesboro--Franklin, TN",793062,963757,1103028,1381287,1670890,"Nashville","TN","Tennessee",47,36.1713835,-86.784408,157.6,"1941-02-07","2019-02-28",36.10333,"KINGSTON SPRINGS, TN US",0.9641,"GHCND:USC00404876","METERS",-87.11528,30.6956395862172
"209",52006,"Nashville-Davidson--Murfreesboro--Franklin, TN",793062,963757,1103028,1381287,1670890,"Nashville","TN","Tennessee",47,36.1713835,-86.784408,182.9,"1948-01-01","2019-02-28",36.11889,"NASHVILLE INTERNATIONAL AIRPORT, TN US",1,"GHCND:USW00013897","METERS",-86.68917,10.3654345810786
"210",52006,"Nashville-Davidson--Murfreesboro--Franklin, TN",793062,963757,1103028,1381287,1670890,"Nashville","TN","Tennessee",47,36.1713835,-86.784408,140.2,"1954-08-20","2019-02-28",36.29528,"OLD HICKORY DAM, TN US",0.9711,"GHCND:USC00406803","METERS",-86.65694,17.9227253676393
"211",52000,"New Haven-Milford, CT",744948,761337,804219,824008,862477,"New Haven","CT","Connecticut",9,41.3104108,-72.924252,54.9,"1936-02-01","2018-02-28",41.40779,"MOUNT CARMEL, CT US",0.7913,"GHCND:USC00065077","METERS",-72.90273,10.9883455200396
"212",52000,"New Haven-Milford, CT",744948,761337,804219,824008,862477,"New Haven","CT","Connecticut",9,41.3104108,-72.924252,1.5,"1942-12-08","2019-02-28",41.1583,"IGOR I SIKORSKY MEMORI AIRPORT, CT US",0.927,"GHCND:USW00094702","METERS",-73.1289,24.0879144507158
"213",52000,"New Haven-Milford, CT",744948,761337,804219,824008,862477,"New Haven","CT","Connecticut",9,41.3104108,-72.924252,0.9,"1948-01-01","2019-02-27",41.26389,"NEW HAVEN TWEED AIRPORT, CT US",0.6575,"GHCND:USW00014758","METERS",-72.88722,6.03438647995733
"214",55000,"New Orleans-Metairie, LA",1144130,1303800,1285270,1337726,1189866,"New Orleans","LA","Louisiana",22,30.0686437,-89.9281281,6.1,"1893-01-01","2019-02-27",29.9166,"NEW ORLEANS AUDUBON, LA US",0.9495,"GHCND:USW00012930","METERS",-90.1302,25.807542533533
"215",55000,"New Orleans-Metairie, LA",1144130,1303800,1285270,1337726,1189866,"New Orleans","LA","Louisiana",22,30.0686437,-89.9281281,3,"1956-01-01","2019-02-28",30.265,"SLIDELL, LA US",0.9933,"GHCND:USC00168539","METERS",-89.7697,26.6509553504625
"216",51000,"New York-Newark-Jersey City, NY-NJ-PA",17506261,16868198,17413155,18944519,19567410,"New York","NY","New York",36,40.6639208,-73.9383509,42.7,"1869-01-01","2019-02-27",40.77898,"NY CITY CENTRAL PARK, NY US",1,"GHCND:USW00094728","METERS",-73.96925,13.0709312592718
"217",51000,"New York-Newark-Jersey City, NY-NJ-PA",17506261,16868198,17413155,18944519,19567410,"New York","NY","New York",36,40.6639208,-73.9383509,2.1,"1893-01-01","2019-02-28",40.6825,"NEWARK LIBERTY INTERNATIONAL AIRPORT, NJ US",0.9125,"GHCND:USW00014734","METERS",-74.1694,19.6165864401758
"218",51000,"New York-Newark-Jersey City, NY-NJ-PA",17506261,16868198,17413155,18944519,19567410,"New York","NY","New York",36,40.6639208,-73.9383509,3.4,"1939-10-07","2019-02-28",40.7792,"LA GUARDIA AIRPORT, NY US",1,"GHCND:USW00014732","METERS",-73.88,13.7446935972921
"219",51000,"New York-Newark-Jersey City, NY-NJ-PA",17506261,16868198,17413155,18944519,19567410,"New York","NY","New York",36,40.6639208,-73.9383509,3.4,"1948-07-17","2019-02-28",40.6386,"JFK INTERNATIONAL AIRPORT, NY US",0.8771,"GHCND:USW00094789","METERS",-73.7622,15.1418151261031
"220",49675,"North Port-Sarasota-Bradenton, FL",217528,350693,489483,589959,702281,"North Port","FL","Florida",12,27.0575727,-82.1976685,7.6,"1899-11-01","2019-02-28",27.21785,"ARCADIA, FL US",0.934,"GHCND:USC00080228","METERS",-81.8742,36.6765762873366
"221",49675,"North Port-Sarasota-Bradenton, FL",217528,350693,489483,589959,702281,"North Port","FL","Florida",12,27.0575727,-82.1976685,2.4,"1927-02-01","2019-02-27",27.1006,"VENICE, FL US",0.729,"GHCND:USC00089176","METERS",-82.4364,24.1421490468924
"222",49675,"North Port-Sarasota-Bradenton, FL",217528,350693,489483,589959,702281,"North Port","FL","Florida",12,27.0575727,-82.1976685,6.1,"1943-08-10","2018-12-31",27.2417,"MYAKKA RIVER STATE PARK, FL US",0.9668,"GHCND:USC00086065","METERS",-82.3161,23.6166096824929
"223",55980,"Ogden-Clearfield, UT",257418,329295,388284,485401,597159,"Ogden","UT","Utah",49,41.2280672,-111.9677225,1554.5,"1903-01-01","2019-02-27",41.05738,"MORGAN, UT US",0.896,"GHCND:USC00425826","METERS",-111.68945,30.086996271829
"224",55980,"Ogden-Clearfield, UT",257418,329295,388284,485401,597159,"Ogden","UT","Utah",49,41.2280672,-111.9677225,1505.7,"1935-01-12","2019-02-28",41.25767,"PINEVIEW DAM, UT US",0.9424,"GHCND:USC00426869","METERS",-111.83772,11.3697057506821
"225",55980,"Ogden-Clearfield, UT",257418,329295,388284,485401,597159,"Ogden","UT","Utah",49,41.2280672,-111.9677225,1335,"1948-07-01","2016-09-30",41.0203,"FARMINGTON 3 NW, UT US",0.7602,"GHCND:USC00422726","METERS",-111.9328,23.3131946040918
"226",55980,"Ogden-Clearfield, UT",257418,329295,388284,485401,597159,"Ogden","UT","Utah",49,41.2280672,-111.9677225,1493.5,"1962-05-02","2019-02-25",41.1091,"WEBER BASIN PUMP PLANT 3, UT US",0.936,"GHCND:USC00429346","METERS",-111.9125,14.0285843801755
"227",55000,"Oklahoma City, OK",723527,871821,971042,1095421,1252987,"Oklahoma City","OK","Oklahoma",40,35.4676248,-97.5136177,343.8,"1894-10-01","2019-02-28",35.1809,"NORMAN 3 SSE, OK US",0.9128,"GHCND:USC00346386","METERS",-97.4377,32.6543429560915
"228",55000,"Oklahoma City, OK",723527,871821,971042,1095421,1252987,"Oklahoma City","OK","Oklahoma",40,35.4676248,-97.5136177,391.7,"1941-12-14","2019-02-28",35.3889,"OKLAHOMA CITY WILL ROGERS WORLD AIRPORT, OK US",0.9216,"GHCND:USW00013967","METERS",-97.6006,11.7920482078944
"229",37000,"Omaha-Council Bluffs, NE-IA",616392,653889,685797,767041,865350,"Omaha","NE","Nebraska",31,41.2627413,-96.049664,340.8,"1893-01-01","2018-07-23",41.0407,"ASHLAND 2, NE US",0.9649,"GHCND:USC00250375","METERS",-96.3811,37.1851804912695
"230",37000,"Omaha-Council Bluffs, NE-IA",616392,653889,685797,767041,865350,"Omaha","NE","Nebraska",31,41.2627413,-96.049664,299.3,"1948-01-01","2019-02-28",41.3102,"OMAHA EPPLEY AIRFIELD, NE US",0.9979,"GHCND:USW00014942","METERS",-95.8991,13.6575255710969
"231",53000,"Orlando-Kissimmee-Sanford, FL",522575,804925,1224852,1644561,2134411,"Orlando","FL","Florida",12,28.4177272,-81.2978165,32.9,"1892-01-01","2019-02-27",28.54528,"ORLANDO EXECUTIVE AIRPORT, FL US",0.7878,"GHCND:USW00012841","METERS",-81.33306,14.6118667705459
"232",53000,"Orlando-Kissimmee-Sanford, FL",522575,804925,1224852,1644561,2134411,"Orlando","FL","Florida",12,28.4177272,-81.2978165,18.3,"1948-09-02","2018-12-31",28.2763,"KISSIMMEE 2, FL US",0.8616,"GHCND:USC00084625","METERS",-81.424,20.0171877461387
"233",53000,"Orlando-Kissimmee-Sanford, FL",522575,804925,1224852,1644561,2134411,"Orlando","FL","Florida",12,28.4177272,-81.2978165,27.4,"1952-05-16","2019-02-28",28.4339,"ORLANDO INTERNATIONAL AIRPORT, FL US",0.9608,"GHCND:USW00012815","METERS",-81.325,3.21299185655999
"234",54652,"Oxnard-Thousand Oaks-Ventura, CA",376430,529174,669016,753197,823318,"Oxnard","CA","California",6,34.2008095,-119.2144287,227.1,"1905-05-01","2019-02-28",34.4477,"OJAI, CA US",0.9718,"GHCND:USC00046399","METERS",-119.2275,27.5099837233737
"235",54652,"Oxnard-Thousand Oaks-Ventura, CA",376430,529174,669016,753197,823318,"Oxnard","CA","California",6,34.2008095,-119.2144287,4,"1946-03-01","2019-02-26",34.11667,"POINT MUGU NF, CA US",0.9155,"GHCND:USW00093111","METERS",-119.11667,12.993073664071
"236",54652,"Oxnard-Thousand Oaks-Ventura, CA",376430,529174,669016,753197,823318,"Oxnard","CA","California",6,34.2008095,-119.2144287,23.5,"1952-12-09","2019-02-27",34.21667,"CAMARILLO AIRPORT, CA US",0.5485,"GHCND:USW00023136","METERS",-119.08333,12.1974899071518
"237",54000,"Palm Bay-Melbourne-Titusville, FL",230006,272959,398978,476230,543376,"Palm Bay","FL","Florida",12,27.9860668,-80.6627725,10.7,"1937-07-21","2019-02-28",28.1136,"MELBOURNE WEATHER FORECAST OFFICE, FL US",0.9613,"GHCND:USC00085612","METERS",-80.654,14.2230664882837
"238",60000,"Philadelphia-Camden-Wilmington, PA-NJ-DE-MD",5317407,5240039,5435468,5687147,5965343,"Philadelphia","PA","Pennsylvania",42,40.0076376,-75.1339612,25.9,"1893-01-01","2019-02-27",40.12113,"PHOENIXVILLE 1 E, PA US",0.7894,"GHCND:USC00366927","METERS",-75.49415,33.1853349949706
"239",60000,"Philadelphia-Camden-Wilmington, PA-NJ-DE-MD",5317407,5240039,5435468,5687147,5965343,"Philadelphia","PA","Pennsylvania",42,40.0076376,-75.1339612,30.5,"1901-05-01","2018-12-31",39.79952,"INDIAN MILLS 2 W, NJ US",0.989,"GHCND:USC00284229","METERS",-74.78042,38.055578297993
"240",60000,"Philadelphia-Camden-Wilmington, PA-NJ-DE-MD",5317407,5240039,5435468,5687147,5965343,"Philadelphia","PA","Pennsylvania",42,40.0076376,-75.1339612,18.3,"1915-01-01","2019-02-27",40.1482,"NESHAMINY FALLS, PA US",0.9761,"GHCND:USC00366194","METERS",-74.953,21.9642654609703
"241",60000,"Philadelphia-Camden-Wilmington, PA-NJ-DE-MD",5317407,5240039,5435468,5687147,5965343,"Philadelphia","PA","Pennsylvania",42,40.0076376,-75.1339612,21.3,"1923-08-01","2019-02-28",40.0744,"CONSHOHOCKEN, PA US",0.9583,"GHCND:USC00361737","METERS",-75.3179,17.3485808505225
"242",60000,"Philadelphia-Camden-Wilmington, PA-NJ-DE-MD",5317407,5240039,5435468,5687147,5965343,"Philadelphia","PA","Pennsylvania",42,40.0076376,-75.1339612,3,"1948-01-01","2019-02-28",39.87327,"PHILADELPHIA INTERNATIONAL AIRPORT, PA US",1,"GHCND:USW00013739","METERS",-75.22678,16.9261069035623
"243",60000,"Philadelphia-Camden-Wilmington, PA-NJ-DE-MD",5317407,5240039,5435468,5687147,5965343,"Philadelphia","PA","Pennsylvania",42,40.0076376,-75.1339612,18.9,"1948-05-21","2018-12-31",40.10967,"NORRISTOWN, PA US",0.7783,"GHCND:USC00366370","METERS",-75.33708,20.7005546672049
"244",60000,"Philadelphia-Camden-Wilmington, PA-NJ-DE-MD",5317407,5240039,5435468,5687147,5965343,"Philadelphia","PA","Pennsylvania",42,40.0076376,-75.1339612,73.2,"1960-08-01","2019-02-28",40.2305,"GRATERFORD 1 E, PA US",0.9385,"GHCND:USC00363437","METERS",-75.4354,35.6923228778439
"245",55000,"Phoenix-Mesa-Scottsdale, AZ",1035438,1599970,2238480,3251876,4192887,"Phoenix","AZ","Arizona",4,33.5722306,-112.0890926,376.4,"1896-03-01","2017-09-30",33.4114,"MESA, AZ US",0.9746,"GHCND:USC00025467","METERS",-111.8183,30.863059893648
"246",55000,"Phoenix-Mesa-Scottsdale, AZ",1035438,1599970,2238480,3251876,4192887,"Phoenix","AZ","Arizona",4,33.5722306,-112.0890926,317,"1917-08-01","2018-12-31",33.4991,"LITCHFIELD PARK, AZ US",0.9412,"GHCND:USC00024977","METERS",-112.363,26.6876778259375
"247",55000,"Phoenix-Mesa-Scottsdale, AZ",1035438,1599970,2238480,3251876,4192887,"Phoenix","AZ","Arizona",4,33.5722306,-112.0890926,337.4,"1933-06-01","2019-02-28",33.4277,"PHOENIX AIRPORT, AZ US",0.9395,"GHCND:USW00023183","METERS",-112.0038,17.931685696882
"248",55000,"Phoenix-Mesa-Scottsdale, AZ",1035438,1599970,2238480,3251876,4192887,"Phoenix","AZ","Arizona",4,33.5722306,-112.0890926,345.9,"1948-07-01","2018-05-31",33.3371,"LAVEEN 3 SSE, AZ US",0.9949,"GHCND:USC00024829","METERS",-112.147,26.7214500268267
"249",55000,"Phoenix-Mesa-Scottsdale, AZ",1035438,1599970,2238480,3251876,4192887,"Phoenix","AZ","Arizona",4,33.5722306,-112.0890926,312.4,"1951-10-01","2017-04-02",33.4519,"TOLLESON 1 E, AZ US",0.9528,"GHCND:USC00028598","METERS",-112.2433,19.6031585644292
"250",55000,"Phoenix-Mesa-Scottsdale, AZ",1035438,1599970,2238480,3251876,4192887,"Phoenix","AZ","Arizona",4,33.5722306,-112.0890926,355.7,"1953-01-01","2019-01-14",33.4258,"TEMPE ASU, AZ US",0.9855,"GHCND:USC00028499","METERS",-111.9216,22.5267200762398
"251",55000,"Phoenix-Mesa-Scottsdale, AZ",1035438,1599970,2238480,3251876,4192887,"Phoenix","AZ","Arizona",4,33.5722306,-112.0890926,771.1,"1962-06-01","2019-02-27",33.8161,"CAREFREE, AZ US",0.8428,"GHCND:USC00021282","METERS",-111.9019,32.2113830606509
"252",55000,"Phoenix-Mesa-Scottsdale, AZ",1035438,1599970,2238480,3251876,4192887,"Phoenix","AZ","Arizona",4,33.5722306,-112.0890926,345.9,"1964-10-01","2019-02-21",33.595,"YOUNGTOWN, AZ US",0.9887,"GHCND:USC00029634","METERS",-112.3014,19.8514376575463
"253",61000,"Pittsburgh, PA",2759443,2648991,2468289,2431087,2356285,"Pittsburgh","PA","Pennsylvania",42,40.4396232,-79.9762589,238.7,"1891-07-01","2019-02-28",40.683,"SCHENLEY LOCK 5, PA US",0.955,"GHCND:USC00367863","METERS",-79.6684,37.5748241413947
"254",61000,"Pittsburgh, PA",2759443,2648991,2468289,2431087,2356285,"Pittsburgh","PA","Pennsylvania",42,40.4396232,-79.9762589,228,"1905-03-01","2019-02-28",40.5361,"ACMETONIA LOCK 3, PA US",0.9882,"GHCND:USC00360022","METERS",-79.8152,17.3573191035238
"255",61000,"Pittsburgh, PA",2759443,2648991,2468289,2431087,2356285,"Pittsburgh","PA","Pennsylvania",42,40.4396232,-79.9762589,232.3,"1926-08-01","2018-11-30",40.1636,"DONORA 1 SW, PA US",0.9834,"GHCND:USC00362190","METERS",-79.8694,32.0380426780435
"256",61000,"Pittsburgh, PA",2759443,2648991,2468289,2431087,2356285,"Pittsburgh","PA","Pennsylvania",42,40.4396232,-79.9762589,231.6,"1927-09-01","2019-02-28",40.61417,"NATRONA LOCK 4, PA US",0.9931,"GHCND:USC00366151","METERS",-79.71917,29.1675999399959
"257",61000,"Pittsburgh, PA",2759443,2648991,2468289,2431087,2356285,"Pittsburgh","PA","Pennsylvania",42,40.4396232,-79.9762589,225.6,"1928-08-18","2018-11-30",40.3391,"MCKEESPORT, PA US",0.9081,"GHCND:USC00365573","METERS",-79.8604,14.8902351653643
"258",61000,"Pittsburgh, PA",2759443,2648991,2468289,2431087,2356285,"Pittsburgh","PA","Pennsylvania",42,40.4396232,-79.9762589,222.5,"1943-06-01","2019-02-28",40.3916,"BRADDOCK LOCK 2, PA US",0.982,"GHCND:USC00360861","METERS",-79.8594,11.2549577179778
"259",61000,"Pittsburgh, PA",2759443,2648991,2468289,2431087,2356285,"Pittsburgh","PA","Pennsylvania",42,40.4396232,-79.9762589,216.4,"1944-10-01","2019-02-28",40.5513,"GLENWILLARD DASH DAM, PA US",0.9736,"GHCND:USC00363343","METERS",-80.2167,23.8504511951941
"260",61000,"Pittsburgh, PA",2759443,2648991,2468289,2431087,2356285,"Pittsburgh","PA","Pennsylvania",42,40.4396232,-79.9762589,366.7,"1945-02-01","2019-02-28",40.4846,"PITTSBURGH ASOS, PA US",0.9606,"GHCND:USW00094823","METERS",-80.2144,20.7816844597005
"261",61000,"Pittsburgh, PA",2759443,2648991,2468289,2431087,2356285,"Pittsburgh","PA","Pennsylvania",42,40.4396232,-79.9762589,289.6,"1952-03-12","2019-02-28",40.20333,"NEW STANTON 1 SW, PA US",0.8377,"GHCND:USC00366310","METERS",-79.6275,39.598826893075
"262",59000,"Portland-Vancouver-Hillsboro, OR-WA",1083977,1341491,1523741,1927881,2226009,"Portland","OR","Oregon",41,45.5371763,-122.650036,64,"1856-01-01","2018-12-31",45.6778,"VANCOUVER 4 NNE, WA US",0.755,"GHCND:USC00458773","METERS",-122.651,15.6543386874794
"263",59000,"Portland-Vancouver-Hillsboro, OR-WA",1083977,1341491,1523741,1927881,2226009,"Portland","OR","Oregon",41,45.5371763,-122.650036,137.2,"1909-01-01","2019-02-28",45.2686,"ESTACADA 2 SE, OR US",0.9889,"GHCND:USC00352693","METERS",-122.3166,39.661740346498
"264",59000,"Portland-Vancouver-Hillsboro, OR-WA",1083977,1341491,1523741,1927881,2226009,"Portland","OR","Oregon",41,45.5371763,-122.650036,50.9,"1911-10-01","2018-12-31",45.3558,"OREGON CITY, OR US",0.7901,"GHCND:USC00356334","METERS",-122.6047,20.4988182324727
"265",59000,"Portland-Vancouver-Hillsboro, OR-WA",1083977,1341491,1523741,1927881,2226009,"Portland","OR","Oregon",41,45.5371763,-122.650036,86.6,"1928-05-27","2018-12-31",45.7716,"BATTLE GROUND, WA US",0.9002,"GHCND:USC00450482","METERS",-122.5286,27.7539312075594
"266",59000,"Portland-Vancouver-Hillsboro, OR-WA",1083977,1341491,1523741,1927881,2226009,"Portland","OR","Oregon",41,45.5371763,-122.650036,5.8,"1936-05-01","2019-02-28",45.5958,"PORTLAND INTERNATIONAL AIRPORT, OR US",0.9768,"GHCND:USW00024229","METERS",-122.6093,7.25717960693502
"267",59000,"Portland-Vancouver-Hillsboro, OR-WA",1083977,1341491,1523741,1927881,2226009,"Portland","OR","Oregon",41,45.5371763,-122.650036,10.1,"1948-01-01","2019-02-27",45.5533,"TROUTDALE, OR US",0.8574,"GHCND:USC00358634","METERS",-122.3886,20.4609804983946
"268",59000,"Portland-Vancouver-Hillsboro, OR-WA",1083977,1341491,1523741,1927881,2226009,"Portland","OR","Oregon",41,45.5371763,-122.650036,157,"1948-09-01","2018-12-31",45.3033,"REX 1 S, OR US",0.9675,"GHCND:USC00357127","METERS",-122.9133,33.1805931193776
"269",59000,"Providence-Warwick, RI-MA",1391026,1421795,1509789,1582997,1600852,"Providence","RI","Rhode Island",44,41.8228764,-71.4186005,29,"1913-04-01","2019-02-28",41.9928,"NORTON WEST, MA US",0.5046,"GHCND:USC00195984","METERS",-71.1666,28.1721051656888
"270",59000,"Providence-Warwick, RI-MA",1391026,1421795,1509789,1582997,1600852,"Providence","RI","Rhode Island",44,41.8228764,-71.4186005,76.2,"1926-03-01","2019-02-27",42.0793,"FRANKLIN, MA US",0.9553,"GHCND:USC00192997","METERS",-71.4095,28.5548860265511
"271",59000,"Providence-Warwick, RI-MA",1391026,1421795,1509789,1582997,1600852,"Providence","RI","Rhode Island",44,41.8228764,-71.4186005,16.8,"1942-08-01","2019-02-28",41.7225,"PROVIDENCE, RI US",0.9292,"GHCND:USW00014765","METERS",-71.4325,11.2332777967863
"272",59000,"Providence-Warwick, RI-MA",1391026,1421795,1509789,1582997,1600852,"Providence","RI","Rhode Island",44,41.8228764,-71.4186005,33.5,"1948-07-01","2019-02-28",41.9844,"WOONSOCKET, RI US",0.9151,"GHCND:USC00379423","METERS",-71.4907,18.947027326896
"273",62470,"Provo-Orem, UT",142350,223636,269407,376774,526810,"Provo","UT","Utah",49,40.2457152,-111.6457096,1545.3,"1899-05-01","2019-02-27",40.4644,"ALPINE, UT US",0.8867,"GHCND:USC00420061","METERS",-111.7708,26.5561279180836
"274",62470,"Provo-Orem, UT",142350,223636,269407,376774,526810,"Provo","UT","Utah",49,40.2457152,-111.6457096,1373.1,"1904-06-01","2019-02-27",40.3603,"UTAH LAKE LEHI, UT US",0.7813,"GHCND:USC00428973","METERS",-111.8972,24.8706330982361
"275",62470,"Provo-Orem, UT",142350,223636,269407,376774,526810,"Provo","UT","Utah",49,40.2457152,-111.6457096,1438.7,"1909-07-01","2019-02-27",40.08003,"SPANISH FORK POWER HOUSE, UT US",0.9917,"GHCND:USC00428119","METERS",-111.6046,18.7726326105729
"276",62470,"Provo-Orem, UT",142350,223636,269407,376774,526810,"Provo","UT","Utah",49,40.2457152,-111.6457096,1572.8,"1914-01-01","2019-02-26",39.9578,"SANTAQUIN CHLORINATOR, UT US",0.9709,"GHCND:USC00427686","METERS",-111.7794,34.0121034164082
"277",62470,"Provo-Orem, UT",142350,223636,269407,376774,526810,"Provo","UT","Utah",49,40.2457152,-111.6457096,1392.9,"1916-04-01","2019-02-27",40.2458,"PROVO BYU, UT US",0.5045,"GHCND:USC00427064","METERS",-111.6508,0.432623984112145
"278",62470,"Provo-Orem, UT",142350,223636,269407,376774,526810,"Provo","UT","Utah",49,40.2457152,-111.6457096,1606.3,"1939-03-01","2019-02-28",40.4044,"DEER CREEK DAM, UT US",0.9912,"GHCND:USC00422057","METERS",-111.5289,20.2563093393945
"279",62470,"Provo-Orem, UT",142350,223636,269407,376774,526810,"Provo","UT","Utah",49,40.2457152,-111.6457096,1430.1,"1946-09-01","2018-12-25",40.36787,"PLEASANT GROVE, UT US",0.9752,"GHCND:USC00426919","METERS",-111.73344,15.5041037337546
"280",62470,"Provo-Orem, UT",142350,223636,269407,376774,526810,"Provo","UT","Utah",49,40.2457152,-111.6457096,1749.6,"1946-12-01","2018-11-30",40.4447,"TIMPANOGOS CAVE, UT US",0.9276,"GHCND:USC00428733","METERS",-111.7075,22.7628057401971
"281",55000,"Raleigh, NC",317010,401981,541100,797071,1130490,"Raleigh","NC","North Carolina",37,35.8323231,-78.643901,121.9,"1892-01-15","2018-12-31",35.7944,"RALEIGH STATE UNIVERSITY, NC US",0.9625,"GHCND:USC00317079","METERS",-78.6988,6.51015546287208
"282",55000,"Raleigh, NC",317010,401981,541100,797071,1130490,"Raleigh","NC","North Carolina",37,35.8323231,-78.643901,79.2,"1893-01-01","2019-02-28",36.1028,"LOUISBURG, NC US",0.9669,"GHCND:USC00315123","METERS",-78.3039,42.9527628972412
"283",55000,"Raleigh, NC",317010,401981,541100,797071,1130490,"Raleigh","NC","North Carolina",37,35.8323231,-78.643901,126.8,"1944-05-18","2019-02-27",35.8923,"RALEIGH AIRPORT, NC US",1,"GHCND:USW00013722","METERS",-78.7819,14.1270499586349
"284",55000,"Raleigh, NC",317010,401981,541100,797071,1130490,"Raleigh","NC","North Carolina",37,35.8323231,-78.643901,91.4,"1955-11-01","2019-02-28",35.6408,"CLAYTON WTP, NC US",0.926,"GHCND:USC00311820","METERS",-78.4633,26.8488613940798
"285",67000,"Richmond, VA",716829,807828,914805,1055683,1208101,"Richmond","VA","Virginia",51,37.5294416,-77.475587,67.1,"1893-01-01","2019-02-27",37.75,"ASHLAND, VA US",0.7978,"GHCND:USC00440327","METERS",-77.4833,24.5618608115025
"286",67000,"Richmond, VA",716829,807828,914805,1055683,1208101,"Richmond","VA","Virginia",51,37.5294416,-77.475587,12.2,"1916-10-01","2019-02-26",37.2992,"HOPEWELL, VA US",0.9785,"GHCND:USC00444101","METERS",-77.2775,31.0429341132175
"287",67000,"Richmond, VA",716829,807828,914805,1055683,1208101,"Richmond","VA","Virginia",51,37.5294416,-77.475587,50,"1939-03-01","2019-02-28",37.51151,"RICHMOND INTERNATIONAL AIRPORT, VA US",0.9552,"GHCND:USW00013740","METERS",-77.32344,13.5807796447193
"288",62000,"Riverside-San Bernardino-Ontario, CA",1143146,1558182,2588793,3254821,4224851,"Riverside","CA","California",6,33.9381288,-117.3948151,256,"1893-01-01","2018-12-31",33.9511,"RIVERSIDE FIRE STATION 3, CA US",0.9059,"GHCND:USC00047470","METERS",-117.388,1.57514462076946
"289",62000,"Riverside-San Bernardino-Ontario, CA",1143146,1558182,2588793,3254821,4224851,"Riverside","CA","California",6,33.9381288,-117.3948151,391.7,"1897-03-10","2018-12-31",33.6692,"ELSINORE, CA US",0.9027,"GHCND:USC00042805","METERS",-117.3319,30.497437989915
"290",62000,"Riverside-San Bernardino-Ontario, CA",1143146,1558182,2588793,3254821,4224851,"Riverside","CA","California",6,33.9381288,-117.3948151,429.8,"1898-04-01","2018-11-30",34.037,"REDLANDS, CA US",0.956,"GHCND:USC00047306","METERS",-117.1948,21.4935489176588
"291",63000,"Rochester, NY",981347,992689,1025220,1062452,1079671,"Rochester","NY","New York",36,43.1688002,-77.6159378,151.8,"1893-01-01","2019-02-28",43.216,"BROCKPORT, NY US",0.7087,"GHCND:USC00300937","METERS",-77.9529,27.847510955293
"292",63000,"Rochester, NY",981347,992689,1025220,1062452,1079671,"Rochester","NY","New York",36,43.1688002,-77.6159378,166.1,"1895-09-01","2019-02-28",42.9203,"AVON, NY US",0.9119,"GHCND:USC00300343","METERS",-77.7557,29.9085382921201
"293",63000,"Rochester, NY",981347,992689,1025220,1062452,1079671,"Rochester","NY","New York",36,43.1688002,-77.6159378,164.3,"1926-01-02","2019-02-28",43.1167,"ROCHESTER GREATER INTERNATIONAL, NY US",1,"GHCND:USW00014768","METERS",-77.6767,7.61546312168723
"294",63000,"Rochester, NY",981347,992689,1025220,1062452,1079671,"Rochester","NY","New York",36,43.1688002,-77.6159378,142,"1932-01-01","2019-02-28",43.0731,"MACEDON, NY US",0.8261,"GHCND:USC00304952","METERS",-77.30196,27.6467491680997
"295",63000,"Rochester, NY",981347,992689,1025220,1062452,1079671,"Rochester","NY","New York",36,43.1688002,-77.6159378,310.9,"1956-09-25","2017-09-26",42.91142,"PAVILION 2 NE, NY US",0.7707,"GHCND:USC00306464","METERS",-77.98088,41.2614963841654
"296",64000,"Sacramento--Roseville--Arden-Arcade, CA",844425,1099814,1481102,1796857,2149127,"Sacramento","CA","California",6,38.5667273,-121.4682807,11.6,"1877-07-11","2019-02-26",38.5552,"SACRAMENTO 5 ESE, CA US",0.9982,"GHCND:USW00023271","METERS",-121.4183,4.53590394677399
"297",64000,"Sacramento--Roseville--Arden-Arcade, CA",844425,1099814,1481102,1796857,2149127,"Sacramento","CA","California",6,38.5667273,-121.4682807,18.3,"1893-01-01","2019-02-28",38.5349,"DAVIS 2 WSW EXPERIMENTAL FARM, CA US",0.9118,"GHCND:USC00042294","METERS",-121.7761,27.0313307195712
"298",64000,"Sacramento--Roseville--Arden-Arcade, CA",844425,1099814,1481102,1796857,2149127,"Sacramento","CA","California",6,38.5667273,-121.4682807,20.4,"1906-03-01","2018-12-31",38.6829,"WOODLAND 1 WNW, CA US",0.8703,"GHCND:USC00049781","METERS",-121.794,31.1396383029532
"299",64000,"Sacramento--Roseville--Arden-Arcade, CA",844425,1099814,1481102,1796857,2149127,"Sacramento","CA","California",6,38.5667273,-121.4682807,4.6,"1941-11-10","2019-02-28",38.5069,"SACRAMENTO EXECUTIVE AIRPORT, CA US",0.9585,"GHCND:USW00023232","METERS",-121.495,7.05463313631572
"300",67000,"Salt Lake City, UT",480152,645099,752557,939122,1087873,"Salt Lake City","UT","Utah",49,40.7773876,-111.9300129,1554.5,"1903-01-01","2019-02-27",41.05738,"MORGAN, UT US",0.896,"GHCND:USC00425826","METERS",-111.68945,37.1614387845967
"301",67000,"Salt Lake City, UT",480152,645099,752557,939122,1087873,"Salt Lake City","UT","Utah",49,40.7773876,-111.9300129,2660.9,"1905-03-17","2019-02-27",40.5905,"ALTA, UT US",0.5081,"GHCND:USC00420072","METERS",-111.6369,32.3271219345256
"302",67000,"Salt Lake City, UT",480152,645099,752557,939122,1087873,"Salt Lake City","UT","Utah",49,40.7773876,-111.9300129,2664,"1915-07-03","2018-12-31",40.6008,"SILVER LAKE BRIGHTON, UT US",0.8745,"GHCND:USC00427846","METERS",-111.5842,35.1917362784488
"303",67000,"Salt Lake City, UT",480152,645099,752557,939122,1087873,"Salt Lake City","UT","Utah",49,40.7773876,-111.9300129,1519.7,"1917-05-01","2019-01-31",40.6189,"COTTONWOOD WEIR, UT US",0.9333,"GHCND:USC00421759","METERS",-111.7836,21.5397091908629
"304",67000,"Salt Lake City, UT",480152,645099,752557,939122,1087873,"Salt Lake City","UT","Utah",49,40.7773876,-111.9300129,1652,"1920-01-05","2018-12-31",40.74853,"MOUNTAIN DELL DAM, UT US",0.9082,"GHCND:USC00425892","METERS",-111.72323,17.7284355718838
"305",67000,"Salt Lake City, UT",480152,645099,752557,939122,1087873,"Salt Lake City","UT","Utah",49,40.7773876,-111.9300129,1287.8,"1941-11-01","2019-02-28",40.7781,"SALT LAKE CITY INTERNATIONAL AIRPORT, UT US",0.9202,"GHCND:USW00024127","METERS",-111.9694,3.32114368412951
"306",67000,"Salt Lake City, UT",480152,645099,752557,939122,1087873,"Salt Lake City","UT","Utah",49,40.7773876,-111.9300129,1335,"1948-07-01","2016-09-30",41.0203,"FARMINGTON 3 NW, UT US",0.7602,"GHCND:USC00422726","METERS",-111.9328,27.0419015718425
"307",67000,"Salt Lake City, UT",480152,645099,752557,939122,1087873,"Salt Lake City","UT","Utah",49,40.7773876,-111.9300129,1624.6,"1955-04-04","2019-02-27",40.8397,"CITY CREEK WATER PLANT, UT US",0.9729,"GHCND:USC00421446","METERS",-111.8313,10.8302179687373
"308",65000,"San Antonio-New Braunfels, TX",951876,1154648,1407745,1711703,2142508,"San Antonio","TX","Texas",48,29.4721484,-98.5246863,329.2,"1940-02-15","2018-11-12",29.7382,"BULVERDE, TX US",0.9593,"GHCND:USC00411215","METERS",-98.4521,30.4385707598879
"309",65000,"San Antonio-New Braunfels, TX",951876,1154648,1407745,1711703,2142508,"San Antonio","TX","Texas",48,29.4721484,-98.5246863,240.5,"1946-08-14","2019-02-28",29.5443,"SAN ANTONIO INTERNATIONAL AIRPORT, TX US",0.9993,"GHCND:USW00012921","METERS",-98.4839,8.95122104658236
"310",66000,"San Diego-Carlsbad, CA",1357854,1861846,2498016,2813833,3095313,"San Diego","CA","California",6,32.8168635,-117.1335027,197.5,"1893-01-01","2018-12-31",33.01953,"POWAY VALLEY, CA US",0.5857,"GHCND:USC00047111","METERS",-117.03096,24.5113587351501
"311",66000,"San Diego-Carlsbad, CA",1357854,1861846,2498016,2813833,3095313,"San Diego","CA","California",6,32.8168635,-117.1335027,17.1,"1918-09-01","2019-02-22",32.64,"CHULA VISTA, CA US",0.9834,"GHCND:USC00041758","METERS",-117.0858,20.1887878776314
"312",66000,"San Diego-Carlsbad, CA",1357854,1861846,2498016,2813833,3095313,"San Diego","CA","California",6,32.8168635,-117.1335027,4.6,"1939-07-01","2019-02-28",32.7336,"SAN DIEGO INTERNATIONAL AIRPORT, CA US",0.9999,"GHCND:USW00023188","METERS",-117.1831,10.3663613427426
"313",66000,"San Diego-Carlsbad, CA",1357854,1861846,2498016,2813833,3095313,"San Diego","CA","California",6,32.8168635,-117.1335027,7.3,"1945-04-01","2019-02-26",32.56667,"IMPERIAL BEACH REAM FIELD NAS, CA US",0.7063,"GHCND:USW00093115","METERS",-117.11667,27.8960220763838
"314",66000,"San Diego-Carlsbad, CA",1357854,1861846,2498016,2813833,3095313,"San Diego","CA","California",6,32.8168635,-117.1335027,7.9,"1945-04-01","2019-02-26",32.7,"NORTH ISLAND NAS, CA US",0.9521,"GHCND:USW00093112","METERS",-117.2,14.4219083353752
"315",66000,"San Diego-Carlsbad, CA",1357854,1861846,2498016,2813833,3095313,"San Diego","CA","California",6,32.8168635,-117.1335027,145.4,"1947-07-01","2018-11-14",32.86667,"SAN DIEGO MIRAMAR NAS, CA US",0.921,"GHCND:USW00093107","METERS",-117.13333,5.54445774595519
"316",66000,"San Diego-Carlsbad, CA",1357854,1861846,2498016,2813833,3095313,"San Diego","CA","California",6,32.8168635,-117.1335027,182.9,"1948-07-01","2019-02-25",32.8856,"EL CAPITAN DAM, CA US",0.9119,"GHCND:USC00042709","METERS",-116.8149,30.761750631808
"317",67000,"San Francisco-Oakland-Hayward, CA",3109519,3250630,3686592,4123740,4335391,"San Francisco","CA","California",6,37.7782251,-122.4424955,94.5,"1893-01-01","2018-12-31",37.8744,"BERKELEY, CA US",0.9281,"GHCND:USC00040693","METERS",-122.2605,19.2536498212784
"318",67000,"San Francisco-Oakland-Hayward, CA",3109519,3250630,3686592,4123740,4335391,"San Francisco","CA","California",6,37.7782251,-122.4424955,36.6,"1894-01-01","2018-12-19",37.99833,"SAN RAFAEL CIVIC CEN, CA US",0.5513,"GHCND:USC00047880","METERS",-122.53722,25.8766534124511
"319",67000,"San Francisco-Oakland-Hayward, CA",3109519,3250630,3686592,4123740,4335391,"San Francisco","CA","California",6,37.7782251,-122.4424955,44.2,"1902-01-01","2019-02-27",37.9566,"KENTFIELD, CA US",0.9649,"GHCND:USC00044500","METERS",-122.5447,21.7934563357356
"320",67000,"San Francisco-Oakland-Hayward, CA",3109519,3250630,3686592,4123740,4335391,"San Francisco","CA","California",6,37.7782251,-122.4424955,45.7,"1921-01-01","2019-02-26",37.7705,"SAN FRANCISCO DOWNTOWN, CA US",0.9999,"GHCND:USW00023272","METERS",-122.4269,1.61944230031653
"321",67000,"San Francisco-Oakland-Hayward, CA",3109519,3250630,3686592,4123740,4335391,"San Francisco","CA","California",6,37.7782251,-122.4424955,67.1,"1940-12-01","2018-12-25",37.8977,"MUIR WOODS, CA US",0.9579,"GHCND:USC00046027","METERS",-122.5688,17.3258576790829
"322",67000,"San Francisco-Oakland-Hayward, CA",3109519,3250630,3686592,4123740,4335391,"San Francisco","CA","California",6,37.7782251,-122.4424955,2.4,"1945-07-01","2019-02-28",37.6197,"SAN FRANCISCO INTERNATIONAL AIRPORT, CA US",0.9985,"GHCND:USW00023234","METERS",-122.3647,18.9305842082296
"323",67000,"San Francisco-Oakland-Hayward, CA",3109519,3250630,3686592,4123740,4335391,"San Francisco","CA","California",6,37.7782251,-122.4424955,1.8,"1948-01-01","2019-02-27",37.72139,"OAKLAND METROPOLITAN INTERNATIONAL AIRPORT, CA US",0.7762,"GHCND:USW00023230","METERS",-122.22083,20.5110350226117
"324",67000,"San Francisco-Oakland-Hayward, CA",3109519,3250630,3686592,4123740,4335391,"San Francisco","CA","California",6,37.7782251,-122.4424955,2.4,"1948-07-01","2018-12-31",37.728,"SAN FRANCISCO OCEANSIDE, CA US",0.7974,"GHCND:USC00047767","METERS",-122.5052,7.85611968512611
"325",67000,"San Francisco-Oakland-Hayward, CA",3109519,3250630,3686592,4123740,4335391,"San Francisco","CA","California",6,37.7782251,-122.4424955,120.1,"1948-07-01","2018-12-31",37.7719,"UPPER SAN LEANDRO FILTERS, CA US",0.8833,"GHCND:USC00049185","METERS",-122.1675,24.2069064580829
"326",67000,"San Francisco-Oakland-Hayward, CA",3109519,3250630,3686592,4123740,4335391,"San Francisco","CA","California",6,37.7782251,-122.4424955,6.1,"1950-12-01","2019-02-27",37.9191,"RICHMOND, CA US",0.9604,"GHCND:USC00047414","METERS",-122.3772,16.6994529326241
"327",68000,"San Jose-Sunnyvale-Santa Clara, CA",1082940,1320076,1534274,1735819,1836911,"San Jose","CA","California",6,37.1733268,-121.8174125,111.3,"1893-01-01","2018-12-29",37.2319,"LOS GATOS, CA US",0.9671,"GHCND:USC00045123","METERS",-121.9592,14.1620618397982
"328",68000,"San Jose-Sunnyvale-Santa Clara, CA",1082940,1320076,1534274,1735819,1836911,"San Jose","CA","California",6,37.1733268,-121.8174125,21.3,"1893-01-01","2019-02-26",36.98785,"SANTA CRUZ, CA US",0.9873,"GHCND:USC00047916","METERS",-121.99952,26.2272126587851
"329",68000,"San Jose-Sunnyvale-Santa Clara, CA",1082940,1320076,1534274,1735819,1836911,"San Jose","CA","California",6,37.1733268,-121.8174125,59.1,"1906-03-01","2018-10-24",37.003,"GILROY, CA US",0.5778,"GHCND:USC00043417","METERS",-121.5608,29.6440292436683
"330",68000,"San Jose-Sunnyvale-Santa Clara, CA",1082940,1320076,1534274,1735819,1836911,"San Jose","CA","California",6,37.1733268,-121.8174125,29,"1908-01-01","2019-02-25",36.9308,"WATSONVILLE WATERWORKS, CA US",0.9266,"GHCND:USC00049473","METERS",-121.7691,27.3370241669415
"331",68000,"San Jose-Sunnyvale-Santa Clara, CA",1082940,1320076,1534274,1735819,1836911,"San Jose","CA","California",6,37.1733268,-121.8174125,11.9,"1945-03-01","2019-02-27",37.40583,"MOFFETT FEDERAL AIRFIELD, CA US",0.9475,"GHCND:USW00023244","METERS",-122.04806,32.9719275502415
"332",68000,"San Jose-Sunnyvale-Santa Clara, CA",1082940,1320076,1534274,1735819,1836911,"San Jose","CA","California",6,37.1733268,-121.8174125,1282,"1948-07-01","2019-02-26",37.3436,"MOUNT HAMILTON, CA US",0.9754,"GHCND:USC00045933","METERS",-121.6425,24.483646095783
"333",68000,"San Jose-Sunnyvale-Santa Clara, CA",1082940,1320076,1534274,1735819,1836911,"San Jose","CA","California",6,37.1733268,-121.8174125,7.6,"1953-09-01","2017-12-30",37.4436,"PALO ALTO, CA US",0.9497,"GHCND:USC00046646","METERS",-122.1402,41.4973367340512
"334",69000,"Scranton--Wilkes-Barre--Hazleton, PA",595490,597420,575264,560625,563631,"Scranton","PA","Pennsylvania",42,41.4043729,-75.6649127,283.5,"1949-01-01","2019-02-28",41.3336,"WILKES BARRE SCRANTON INTERNATIONAL AIRPORT, PA US",0.9939,"GHCND:USW00014777","METERS",-75.7269,9.42795923345426
"335",69000,"Scranton--Wilkes-Barre--Hazleton, PA",595490,597420,575264,560625,563631,"Scranton","PA","Pennsylvania",42,41.4043729,-75.6649127,459.9,"1963-10-01","2019-02-28",41.1184,"FRANCIS E WALTER DAM, PA US",0.8979,"GHCND:USC00363018","METERS",-75.7277,32.2650116254978
"336",63000,"Seattle-Tacoma-Bellevue, WA",1832896,2093112,2559164,3043878,3439809,"Seattle","WA","Washington",53,47.6199944,-122.3512356,33.5,"1899-05-01","2019-02-28",47.5688,"BREMERTON, WA US",0.9191,"GHCND:USC00450872","METERS",-122.6827,25.5276150607591
"337",63000,"Seattle-Tacoma-Bellevue, WA",1832896,2093112,2559164,3043878,3439809,"Seattle","WA","Washington",53,47.6199944,-122.3512356,163.1,"1903-04-01","2019-02-23",47.3766,"LANDSBURG, WA US",0.9431,"GHCND:USC00454486","METERS",-121.9613,39.9268724600323
"338",63000,"Seattle-Tacoma-Bellevue, WA",1832896,2093112,2559164,3043878,3439809,"Seattle","WA","Washington",53,47.6199944,-122.3512356,9.1,"1912-04-01","2019-02-27",47.4172,"KENT, WA US",0.9004,"GHCND:USC00454169","METERS",-122.2433,23.9890625621842
"339",63000,"Seattle-Tacoma-Bellevue, WA",1832896,2093112,2559164,3043878,3439809,"Seattle","WA","Washington",53,47.6199944,-122.3512356,36.6,"1929-02-01","2019-02-27",47.8452,"MONROE, WA US",0.9557,"GHCND:USC00455525","METERS",-121.9944,36.6373633786066
"340",63000,"Seattle-Tacoma-Bellevue, WA",1832896,2093112,2559164,3043878,3439809,"Seattle","WA","Washington",53,47.6199944,-122.3512356,5.2,"1938-07-01","2015-08-31",47.3725,"WAUNA 3 W, WA US",0.9543,"GHCND:USC00459021","METERS",-122.7027,38.1813844898459
"341",63000,"Seattle-Tacoma-Bellevue, WA",1832896,2093112,2559164,3043878,3439809,"Seattle","WA","Washington",53,47.6199944,-122.3512356,112.8,"1948-01-01","2019-02-28",47.4444,"SEATTLE TACOMA INTERNATIONAL AIRPORT, WA US",1,"GHCND:USW00024233","METERS",-122.3138,19.748544371573
"342",63000,"Seattle-Tacoma-Bellevue, WA",1832896,2093112,2559164,3043878,3439809,"Seattle","WA","Washington",53,47.6199944,-122.3512356,6.1,"1948-01-01","2019-02-26",47.53028,"SEATTLE BOEING FIELD, WA US",0.5329,"GHCND:USW00024234","METERS",-122.30083,10.6802895082481
"343",67000,"Spokane-Spokane Valley, WA",310917,379394,401227,469737,527753,"Spokane","WA","Washington",53,47.6670879,-117.4329879,717.2,"1889-08-01","2019-02-28",47.6216,"SPOKANE INTERNATIONAL AIRPORT, WA US",0.9998,"GHCND:USW00024157","METERS",-117.528,8.74177437977345
"344",67000,"Springfield, MA",583031,581831,602878,608479,621570,"Springfield","MA","Massachusetts",25,42.115502,-72.5395222,44.2,"1893-01-01","2019-02-27",42.3861,"AMHERST, MA US",0.9834,"GHCND:USC00190120","METERS",-72.5374,30.1233391341434
"345",67000,"Springfield, MA",583031,581831,602878,608479,621570,"Springfield","MA","Massachusetts",25,42.115502,-72.5395222,121.9,"1937-09-01","2017-12-31",42.2623,"WARE, MA US",0.9398,"GHCND:USC00198793","METERS",-72.2482,29.0586638466807
"346",67000,"Springfield, MA",583031,581831,602878,608479,621570,"Springfield","MA","Massachusetts",25,42.115502,-72.5395222,167.6,"1942-01-01","2019-02-28",42.2796,"BELCHERTOWN, MA US",0.9919,"GHCND:USC00190562","METERS",-72.3482,24.1380389956686
"347",67000,"Springfield, MA",583031,581831,602878,608479,621570,"Springfield","MA","Massachusetts",25,42.115502,-72.5395222,53.3,"1942-01-08","2019-02-28",41.9375,"HARTFORD BRADLEY INTERNATIONAL AIRPORT, CT US",0.9093,"GHCND:USW00014740","METERS",-72.6819,23.0489266121158
"348",65000,"St. Louis, MO-IL",2520639,2485566,2560517,2675343,2787701,"St. Louis","MO","Missouri",29,38.6357743,-90.2451721,132.6,"1892-12-02","2019-02-28",38.86702,"ALTON MELVIN PRICE LOCK AND DAM, IL US",0.5729,"GHCND:USC00110137","METERS",-90.14886,27.0660217882807
"349",65000,"St. Louis, MO-IL",2520639,2485566,2560517,2675343,2787701,"St. Louis","MO","Missouri",29,38.6357743,-90.2451721,142.3,"1893-01-01","2019-02-28",38.8147,"ST CHARLES, MO US",0.9618,"GHCND:USC00237397","METERS",-90.5169,30.8806702746366
"350",65000,"St. Louis, MO-IL",2520639,2485566,2560517,2675343,2787701,"St. Louis","MO","Missouri",29,38.6357743,-90.2451721,141.7,"1893-02-01","2019-02-28",38.80933,"EDWARDSVILLE 2 W, IL US",0.8125,"GHCND:USC00112679","METERS",-90.00345,28.5305642373334
"351",65000,"St. Louis, MO-IL",2520639,2485566,2560517,2675343,2787701,"St. Louis","MO","Missouri",29,38.6357743,-90.2451721,161.8,"1916-08-01","2015-08-23",38.5572,"VALLEY PARK, MO US",0.955,"GHCND:USC00238561","METERS",-90.4922,23.203819327992
"352",65000,"St. Louis, MO-IL",2520639,2485566,2560517,2675343,2787701,"St. Louis","MO","Missouri",29,38.6357743,-90.2451721,161.8,"1938-04-01","2019-02-28",38.7525,"ST LOUIS LAMBERT INTERNATIONAL AIRPORT, MO US",0.9999,"GHCND:USW00013994","METERS",-90.3736,17.1274304782981
"353",75000,"Stockton-Lodi, CA",290208,347342,480628,563598,685306,"Stockton","CA","California",6,37.9766216,-121.3111413,12.2,"1893-01-01","2015-01-30",38.1061,"LODI, CA US",0.843,"GHCND:USC00045032","METERS",-121.2877,14.5592469254104
"354",75000,"Stockton-Lodi, CA",290208,347342,480628,563598,685306,"Stockton","CA","California",6,37.9766216,-121.3111413,7.9,"1941-02-20","2019-02-28",37.8891,"STOCKTON METROPOLITAN AIRPORT, CA US",0.9021,"GHCND:USW00023237","METERS",-121.2258,12.2910279440701
"355",75000,"Stockton-Lodi, CA",290208,347342,480628,563598,685306,"Stockton","CA","California",6,37.9766216,-121.3111413,18.6,"1955-02-01","2019-02-27",37.79589,"TRACY PUMPING PLANT, CA US",0.9851,"GHCND:USC00049001","METERS",-121.58319,31.241709345722
"356",73000,"Syracuse, NY",636507,642971,659864,650154,662577,"Syracuse","NY","New York",36,43.040922,-76.1437638,115.5,"1893-01-01","2018-03-16",43.15,"BALDWINSVILLE, NY US",0.766,"GHCND:USC00300379","METERS",-76.3333,19.6166349418476
"357",73000,"Syracuse, NY",636507,642971,659864,650154,662577,"Syracuse","NY","New York",36,43.040922,-76.1437638,266.7,"1900-02-01","2018-12-31",42.9461,"SKANEATELES, NY US",0.9133,"GHCND:USC00307780","METERS",-76.4313,25.6814418022453
"358",73000,"Syracuse, NY",636507,642971,659864,650154,662577,"Syracuse","NY","New York",36,43.040922,-76.1437638,114.9,"1932-01-01","2019-02-28",43.2386,"BREWERTON LOCK 23, NY US",0.9402,"GHCND:USC00300870","METERS",-76.1964,22.4169265728851
"359",73000,"Syracuse, NY",636507,642971,659864,650154,662577,"Syracuse","NY","New York",36,43.040922,-76.1437638,125.9,"1938-05-01","2019-02-28",43.1111,"SYRACUSE HANCOCK INTERNATIONAL AIRPORT, NY US",1,"GHCND:USW00014771","METERS",-76.1038,8.46108271522504
"360",73000,"Syracuse, NY",636507,642971,659864,650154,662577,"Syracuse","NY","New York",36,43.040922,-76.1437638,176.8,"1946-08-01","2018-12-31",43.3305,"CAMDEN, NY US",0.8188,"GHCND:USC00301110","METERS",-75.8416,40.5049509054342
"361",71000,"Tampa-St. Petersburg-Clearwater, FL",1105553,1613603,2067959,2395997,2783243,"Tampa","FL","Florida",12,27.9679724,-82.4764052,2.4,"1892-01-01","2019-02-27",28.1522,"TARPON SPNGS SWG PLANT, FL US",0.9842,"GHCND:USC00088824","METERS",-82.7538,34.1046714792819
"362",71000,"Tampa-St. Petersburg-Clearwater, FL",1105553,1613603,2067959,2395997,2783243,"Tampa","FL","Florida",12,27.9679724,-82.4764052,2.4,"1892-01-01","2015-01-12",27.7629,"ST PETERSBURG ALBERT WHITTED AIRPORT, FL US",0.8335,"GHCND:USC00087886","METERS",-82.6262,27.1745523338011
"363",71000,"Tampa-St. Petersburg-Clearwater, FL",1105553,1613603,2067959,2395997,2783243,"Tampa","FL","Florida",12,27.9679724,-82.4764052,5.8,"1939-02-01","2019-02-28",27.96194,"TAMPA INTERNATIONAL AIRPORT, FL US",1,"GHCND:USW00012842","METERS",-82.5403,6.31800337196675
"364",71000,"Tampa-St. Petersburg-Clearwater, FL",1105553,1613603,2067959,2395997,2783243,"Tampa","FL","Florida",12,27.9679724,-82.4764052,16.2,"1943-08-08","2018-12-31",28.1469,"HILLSBOROUGH RVR ST PARK, FL US",0.9017,"GHCND:USC00083986","METERS",-82.2276,31.5298924433574
"365",77000,"Toledo, OH",607163,616864,614128,618203,610001,"Toledo","OH","Ohio",39,41.663915,-83.5822162,205.7,"1893-06-01","2019-02-26",41.3831,"BOWLING GREEN WWTP, OH US",0.9905,"GHCND:USC00330862","METERS",-83.6111,31.3527338026105
"366",77000,"Toledo, OH",607163,616864,614128,618203,610001,"Toledo","OH","Ohio",39,41.663915,-83.5822162,205.4,"1955-01-01","2019-02-28",41.5871,"TOLEDO EXPRESS AIRPORT, OH US",1,"GHCND:USW00094830","METERS",-83.8055,20.4530762540477
"367",77000,"Tucson, AZ",351667,531443,666880,843746,980263,"Tucson","AZ","Arizona",4,32.1545839,-110.8782411,776.9,"1946-06-01","2019-02-28",32.1313,"TUCSON INTERNATIONAL AIRPORT, AZ US",0.9848,"GHCND:USW00023160","METERS",-110.9552,7.7030703040056
"368",75000,"Tulsa, OK",574229,711652,761019,859532,937478,"Tulsa","OK","Oklahoma",40,36.1283944,-95.90422,179.2,"1900-04-20","2019-02-28",36.3225,"CLAREMORE 2 ENE, OK US",0.875,"GHCND:USC00341828","METERS",-95.5808,36.1996762194846
"369",75000,"Tulsa, OK",574229,711652,761019,859532,937478,"Tulsa","OK","Oklahoma",40,36.1283944,-95.90422,198.1,"1938-12-01","2019-02-28",36.1994,"TULSA INTERNATIONAL AIRPORT, OK US",0.9605,"GHCND:USW00013968","METERS",-95.8872,8.05095053372191
"370",71550,"Urban Honolulu, HI",629176,762565,836231,876156,953207,"Urban Honolulu","HI","Hawaii",15,21.3257048,-157.8453493,9.8,"1905-01-01","2018-12-30",21.3479,"MOANALUA 770, HI US",0.9216,"GHCND:USC00516395","METERS",-157.891,5.33953256674433
"371",71550,"Urban Honolulu, HI",629176,762565,836231,876156,953207,"Urban Honolulu","HI","Hawaii",15,21.3257048,-157.8453493,73.2,"1905-01-01","2019-02-27",21.3113,"MANOA 712.1, HI US",0.9586,"GHCND:USC00516122","METERS",-157.8157,3.4677245500525
"372",71550,"Urban Honolulu, HI",629176,762565,836231,876156,953207,"Urban Honolulu","HI","Hawaii",15,21.3257048,-157.8453493,15.2,"1906-01-01","2018-11-30",21.386,"WAIPAHU 750, HI US",0.5828,"GHCND:USC00519738","METERS",-158.007,18.0533919798268
"373",71550,"Urban Honolulu, HI",629176,762565,836231,876156,953207,"Urban Honolulu","HI","Hawaii",15,21.3257048,-157.8453493,277.4,"1914-09-01","2018-12-31",21.37528,"KALIHI RES SITE 777, HI US",0.8498,"GHCND:USC00512960","METERS",-157.82222,6.01718266869905
"374",71550,"Urban Honolulu, HI",629176,762565,836231,876156,953207,"Urban Honolulu","HI","Hawaii",15,21.3257048,-157.8453493,187.1,"1922-05-01","2018-12-31",21.33889,"KAPALAMA 773, HI US",0.7203,"GHCND:USC00513268","METERS",-157.85806,1.97268497793503
"375",71550,"Urban Honolulu, HI",629176,762565,836231,876156,953207,"Urban Honolulu","HI","Hawaii",15,21.3257048,-157.8453493,34.1,"1925-11-01","2019-02-25",21.298,"UNIVERSITY OF HAWAII 713, HI US",0.7306,"GHCND:USC00518815","METERS",-157.8165,4.29684673775711
"376",71550,"Urban Honolulu, HI",629176,762565,836231,876156,953207,"Urban Honolulu","HI","Hawaii",15,21.3257048,-157.8453493,307.8,"1938-01-01","2018-12-05",21.35278,"NUUANU RES 4 783, HI US",0.9699,"GHCND:USC00516928","METERS",-157.80778,4.92533171548505
"377",71550,"Urban Honolulu, HI",629176,762565,836231,876156,953207,"Urban Honolulu","HI","Hawaii",15,21.3257048,-157.8453493,2.1,"1939-06-01","2019-02-28",21.324,"HONOLULU INTERNATIONAL AIRPORT, HI US",0.9808,"GHCND:USW00022521","METERS",-157.9294,8.7179420717007
"378",71550,"Urban Honolulu, HI",629176,762565,836231,876156,953207,"Urban Honolulu","HI","Hawaii",15,21.3257048,-157.8453493,3,"1942-01-01","2018-04-30",21.45045,"KANEOHE BAY MCAS, HI US",0.8098,"GHCND:USW00022519","METERS",-157.76794,16.0379812897155
"379",71550,"Urban Honolulu, HI",629176,762565,836231,876156,953207,"Urban Honolulu","HI","Hawaii",15,21.3257048,-157.8453493,287.4,"1942-01-01","2018-12-31",21.32278,"PALOLO VALLEY 718, HI US",0.9299,"GHCND:USC00517664","METERS",-157.77194,7.6193772622603
"380",71550,"Urban Honolulu, HI",629176,762565,836231,876156,953207,"Urban Honolulu","HI","Hawaii",15,21.3257048,-157.8453493,227.1,"1942-01-01","2018-10-31",21.4705,"WAIAHOLE 837, HI US",0.7938,"GHCND:USC00518964","METERS",-157.8836,16.5989290677981
"381",71550,"Urban Honolulu, HI",629176,762565,836231,876156,953207,"Urban Honolulu","HI","Hawaii",15,21.3257048,-157.8453493,499.9,"1949-10-01","2018-12-31",21.34472,"PAUOA FLATS 784, HI US",0.9699,"GHCND:USC00517810","METERS",-157.80583,4.61220747150577
"382",71550,"Urban Honolulu, HI",629176,762565,836231,876156,953207,"Urban Honolulu","HI","Hawaii",15,21.3257048,-157.8453493,335.3,"1949-10-01","2018-12-31",21.29889,"WILHELMINA RISE 721, HI US",0.9639,"GHCND:USC00519980","METERS",-157.78472,6.96024552718322
"383",71550,"Urban Honolulu, HI",629176,762565,836231,876156,953207,"Urban Honolulu","HI","Hawaii",15,21.3257048,-157.8453493,288,"1949-10-01","2015-08-31",21.5738,"OPAEULA 870, HI US",0.8064,"GHCND:USC00517150","METERS",-158.0379,34.069755749844
"384",71550,"Urban Honolulu, HI",629176,762565,836231,876156,953207,"Urban Honolulu","HI","Hawaii",15,21.3257048,-157.8453493,103,"1950-02-01","2018-12-31",21.3103,"PUNCHBOWL CRATER 709, HI US",0.946,"GHCND:USC00518316","METERS",-157.8458,1.71549131522497
"385",71550,"Urban Honolulu, HI",629176,762565,836231,876156,953207,"Urban Honolulu","HI","Hawaii",15,21.3257048,-157.8453493,3,"1953-02-01","2019-02-27",21.2733,"WAIALAE KAHALA 715, HI US",0.9748,"GHCND:USC00519185","METERS",-157.7803,8.91901739079071
"386",71550,"Urban Honolulu, HI",629176,762565,836231,876156,953207,"Urban Honolulu","HI","Hawaii",15,21.3257048,-157.8453493,0.9,"1957-06-01","2018-12-30",21.4336,"COCONUT ISLAND 840.1, HI US",0.8627,"GHCND:USC00510350","METERS",-157.7868,13.4571546636589
"387",71550,"Urban Honolulu, HI",629176,762565,836231,876156,953207,"Urban Honolulu","HI","Hawaii",15,21.3257048,-157.8453493,6.1,"1958-01-08","2018-12-31",21.30611,"BERETANIA PUMP STATION 7, HI US",0.8658,"GHCND:USC00510211","METERS",-157.85306,2.32323202383007
"388",71550,"Urban Honolulu, HI",629176,762565,836231,876156,953207,"Urban Honolulu","HI","Hawaii",15,21.3257048,-157.8453493,0.9,"1962-08-01","2019-02-27",21.3152,"HONOLULU OBSERVATORY 702.2, HI US",0.9579,"GHCND:USC00511918","METERS",-157.9992,15.9972614085341
"389",82000,"Virginia Beach-Norfolk-Newport News, VA-NC",1064551,1209873,1452549,1580057,1676822,"Virginia Beach","VA","Virginia",51,36.7777632,-76.0163282,5.2,"1945-02-01","2019-02-27",36.93746,"NORFOLK NAS, VA US",0.9569,"GHCND:USW00013750","METERS",-76.28926,30.1166066235147
"390",82000,"Virginia Beach-Norfolk-Newport News, VA-NC",1064551,1209873,1452549,1580057,1676822,"Virginia Beach","VA","Virginia",51,36.7777632,-76.0163282,7,"1945-03-01","2019-02-27",36.81667,"OCEANA NAS, VA US",0.8955,"GHCND:USW00013769","METERS",-76.03333,4.58859173210167
"391",82000,"Virginia Beach-Norfolk-Newport News, VA-NC",1064551,1209873,1452549,1580057,1676822,"Virginia Beach","VA","Virginia",51,36.7777632,-76.0163282,9.1,"1946-01-01","2019-02-28",36.9033,"NORFOLK INTERNATIONAL AIRPORT, VA US",1,"GHCND:USW00013737","METERS",-76.1922,20.9949998782421
"392",50000,"Washington-Arlington-Alexandria, DC-VA-MD-WV",3164346,3426648,4157327,4837428,5636232,"Washington","DC","District of Columbia",11,38.9047737,-77.0163027,121.9,"1895-04-01","2016-08-31",39.0847,"LAUREL 3 W, MD US",0.9156,"GHCND:USC00185111","METERS",-76.9002,22.4070097205391
"393",50000,"Washington-Arlington-Alexandria, DC-VA-MD-WV",3164346,3426648,4157327,4837428,5636232,"Washington","DC","District of Columbia",11,38.9047737,-77.0163027,127.4,"1925-04-01","2019-02-28",38.8922,"VIENNA, VA US",0.8492,"GHCND:USC00448737","METERS",-77.2892,23.6839753470703
"394",50000,"Washington-Arlington-Alexandria, DC-VA-MD-WV",3164346,3426648,4157327,4837428,5636232,"Washington","DC","District of Columbia",11,38.9047737,-77.0163027,3,"1936-09-01","2019-02-28",38.8472,"WASHINGTON REAGAN NATIONAL AIRPORT, VA US",0.8929,"GHCND:USW00013743","METERS",-77.03454,6.60107674834489
"395",50000,"Washington-Arlington-Alexandria, DC-VA-MD-WV",3164346,3426648,4157327,4837428,5636232,"Washington","DC","District of Columbia",11,38.9047737,-77.0163027,47.5,"1939-07-01","2019-02-28",39.1733,"BALTIMORE WASHINGTON INTERNATIONAL AIRPORT, MD US",1,"GHCND:USW00093721","METERS",-76.684,41.4617226900593
"396",50000,"Washington-Arlington-Alexandria, DC-VA-MD-WV",3164346,3426648,4157327,4837428,5636232,"Washington","DC","District of Columbia",11,38.9047737,-77.0163027,44.2,"1941-05-01","2019-02-26",39.0302,"BELTSVILLE, MD US",0.9481,"GHCND:USC00180700","METERS",-76.9315,15.7740502963151
"397",50000,"Washington-Arlington-Alexandria, DC-VA-MD-WV",3164346,3426648,4157327,4837428,5636232,"Washington","DC","District of Columbia",11,38.9047737,-77.0163027,45.7,"1948-08-01","2018-12-31",38.9385,"DALECARLIA RESERVOIR, DC US",0.9836,"GHCND:USC00182325","METERS",-77.1134,9.20935722941447
"398",50000,"Washington-Arlington-Alexandria, DC-VA-MD-WV",3164346,3426648,4157327,4837428,5636232,"Washington","DC","District of Columbia",11,38.9047737,-77.0163027,100.6,"1948-08-01","2017-09-29",39.1911,"BRIGHTON DAM, MD US",0.7343,"GHCND:USC00181125","METERS",-77.0069,31.8840619320061
"399",50000,"Washington-Arlington-Alexandria, DC-VA-MD-WV",3164346,3426648,4157327,4837428,5636232,"Washington","DC","District of Columbia",11,38.9047737,-77.0163027,15.2,"1948-08-01","2018-12-31",38.9133,"NATIONAL ARBORETUM DC, DC US",0.9638,"GHCND:USC00186350","METERS",-76.97,4.12163491524531
"400",50000,"Washington-Arlington-Alexandria, DC-VA-MD-WV",3164346,3426648,4157327,4837428,5636232,"Washington","DC","District of Columbia",11,38.9047737,-77.0163027,39.6,"1956-05-01","2016-08-31",38.8519,"UPPER MARLBORO 3 NNW, MD US",0.9518,"GHCND:USC00189070","METERS",-76.7683,22.2833139355048
"401",79000,"Wichita, KS",449027,475732,519403,579839,630919,"Wichita","KS","Kansas",20,37.6896722,-97.3442305,438.9,"1893-03-01","2019-02-24",37.8658,"MOUNT HOPE, KS US",0.9805,"GHCND:USC00145539","METERS",-97.6648,34.3507052587985
"402",79000,"Wichita, KS",449027,475732,519403,579839,630919,"Wichita","KS","Kansas",20,37.6896722,-97.3442305,374,"1943-04-01","2018-12-31",37.4348,"PECK 2 S, KS US",0.8934,"GHCND:USC00146305","METERS",-97.3923,28.687568109257
"403",79000,"Wichita, KS",449027,475732,519403,579839,630919,"Wichita","KS","Kansas",20,37.6896722,-97.3442305,404.5,"1944-12-01","2019-01-16",37.432,"CONWAY SPRINGS 3 NNW, KS US",0.9911,"GHCND:USC00141795","METERS",-97.6611,40.057738293403
"404",79000,"Wichita, KS",449027,475732,519403,579839,630919,"Wichita","KS","Kansas",20,37.6896722,-97.3442305,411.5,"1953-10-01","2018-12-31",37.9411,"POTWIN, KS US",0.9859,"GHCND:USC00146524","METERS",-97.0222,39.81682866724
"405",79000,"Wichita, KS",449027,475732,519403,579839,630919,"Wichita","KS","Kansas",20,37.6896722,-97.3442305,402.6,"1953-12-01","2019-02-28",37.6475,"WICHITA DWIGHT D. EISENHOWER NATIONAL AIRPORT, KS US",1,"GHCND:USW00003928","METERS",-97.43,8.89704069003128
"406",75000,"Winston-Salem, NC",377211,442969,488125,569207,640595,"Winston","NC","North Carolina",37,36.1029481,-80.2609666,207.3,"1893-01-04","2019-01-31",35.84219,"MOCKSVILLE 5 SE, NC US",0.734,"GHCND:USC00315743","METERS",-80.49777,36.0238978743824
"407",75000,"Winston-Salem, NC",377211,442969,488125,569207,640595,"Winston","NC","North Carolina",37,36.1029481,-80.2609666,295.7,"1899-06-01","2019-02-26",36.13361,"WINSTON SALEM REYNOLDS AIRPORT, NC US",0.698,"GHCND:USW00093807","METERS",-80.22222,4.87754132333124
"408",75000,"Winston-Salem, NC",377211,442969,488125,569207,640595,"Winston","NC","North Carolina",37,36.1029481,-80.2609666,231.6,"1902-09-01","2018-12-31",35.8458,"LEXINGTON, NC US",0.745,"GHCND:USC00314970","METERS",-80.2597,28.6258229715881
"409",75000,"Winston-Salem, NC",377211,442969,488125,569207,640595,"Winston","NC","North Carolina",37,36.1029481,-80.2609666,274.3,"1921-07-01","2018-12-31",35.9672,"HIGH POINT, NC US",0.982,"GHCND:USC00314063","METERS",-79.9722,30.0677689293743
"410",75000,"Winston-Salem, NC",377211,442969,488125,569207,640595,"Winston","NC","North Carolina",37,36.1029481,-80.2609666,271.3,"1928-11-01","2019-02-28",36.0969,"GREENSBORO AIRPORT, NC US",1,"GHCND:USW00013723","METERS",-79.9432,28.5894675910325
"411",75000,"Winston-Salem, NC",377211,442969,488125,569207,640595,"Winston","NC","North Carolina",37,36.1029481,-80.2609666,266.7,"1940-02-05","2019-02-28",36.1306,"YADKINVILLE 6 E, NC US",0.9202,"GHCND:USC00319675","METERS",-80.5481,26.0035305163633
"412",82000,"Worcester, MA-CT",722484,738664,812230,860054,916980,"Worcester","MA","Massachusetts",25,42.2705433,-71.8079407,85.3,"1885-01-01","2019-02-28",42.1633,"MILFORD, MA US",0.6387,"GHCND:USC00194760","METERS",-71.5119,27.1700304840708
"413",82000,"Worcester, MA-CT",722484,738664,812230,860054,916980,"Worcester","MA","Massachusetts",25,42.2705433,-71.8079407,208.8,"1926-03-01","2019-02-28",42.0583,"SOUTHBRIDGE 3 SW, MA US",0.9566,"GHCND:USC00197627","METERS",-72.0721,32.1451099111406
"414",82000,"Worcester, MA-CT",722484,738664,812230,860054,916980,"Worcester","MA","Massachusetts",25,42.2705433,-71.8079407,304.8,"1948-06-01","2019-02-28",42.2706,"WORCESTER, MA US",0.9998,"GHCND:USW00094746","METERS",-71.8731,5.36742443560203
"415",82000,"Worcester, MA-CT",722484,738664,812230,860054,916980,"Worcester","MA","Massachusetts",25,42.2705433,-71.8079407,33.5,"1948-07-01","2019-02-28",41.9844,"WOONSOCKET, RI US",0.9151,"GHCND:USC00379423","METERS",-71.4907,41.2386632941298
"416",82000,"Worcester, MA-CT",722484,738664,812230,860054,916980,"Worcester","MA","Massachusetts",25,42.2705433,-71.8079407,251.5,"1959-02-01","2019-02-28",42.428,"BARRE FALLS DAM, MA US",0.9566,"GHCND:USC00190408","METERS",-72.0275,25.1697072720527
"417",82000,"Worcester, MA-CT",722484,738664,812230,860054,916980,"Worcester","MA","Massachusetts",25,42.2705433,-71.8079407,158.5,"1959-05-01","2019-02-28",42.1163,"BUFFUMVILLE LAKE, MA US",0.9133,"GHCND:USC00190998","METERS",-71.9074,19.0290706409806
"418",82000,"Worcester, MA-CT",722484,738664,812230,860054,916980,"Worcester","MA","Massachusetts",25,42.2705433,-71.8079407,213.4,"1962-06-01","2019-02-27",42.1103,"EAST BRIMFIELD LAKE, MA US",0.9464,"GHCND:USC00192107","METERS",-72.1269,31.7847786604852
"419",82000,"Worcester, MA-CT",722484,738664,812230,860054,916980,"Worcester","MA","Massachusetts",25,42.2705433,-71.8079407,62.5,"1963-07-08","2018-06-27",42.4293,"MAYNARD 2, MA US",0.9292,"GHCND:USC00194580","METERS",-71.4425,34.8742755529405
"420",82000,"Worcester, MA-CT",722484,738664,812230,860054,916980,"Worcester","MA","Massachusetts",25,42.2705433,-71.8079407,96,"1964-02-01","2019-02-28",42.11504,"NORTHBRIDGE 2, MA US",0.9926,"GHCND:USC00195524","METERS",-71.676,20.4467531762847
